{
"type": "FeatureCollection",
"name": "tram_catchment_800m",
"crs": { "type": "name", "properties": { "name": "urn:ogc:def:crs:OGC:1.3:CRS84" } },
"features": [
{ "type": "Feature", "properties": { "buffer_m": 800, "stop_count": 310 }, "geometry": { "type": "Polygon", "coordinates": [ [ [ 4.368105711682167, 51.162976051020664 ], [ 4.367091155589491, 51.16267433065412 ], [ 4.366034462029628, 51.162436581336578 ], [ 4.364945803696036, 51.162265091749703 ], [ 4.363835660579103, 51.162161512707954 ], [ 4.362714719206511, 51.162126841288291 ], [ 4.36159376990888, 51.162161411244703 ], [ 4.360483603093021, 51.162264889799921 ], [ 4.359394905514459, 51.162436280844389 ], [ 4.358338157540884, 51.162673934512313 ], [ 4.357323532388939, 51.162975563042899 ], [ 4.356360798298248, 51.163338262775298 ], [ 4.355459224579152, 51.163758542066972 ], [ 4.35462749243433, 51.164232354868005 ], [ 4.353873611409629, 51.164755139630344 ], [ 4.353204842276621, 51.165321863179308 ], [ 4.35262762708884, 51.165927069127065 ], [ 4.352147527085994, 51.16656493036416 ], [ 4.351769169046275, 51.16722930512568 ], [ 4.351496200606907, 51.167913796094282 ], [ 4.35133125498781, 51.168611811972212 ], [ 4.351275925463828, 51.169316630931355 ], [ 4.351330749837801, 51.170021465330969 ], [ 4.351495205071042, 51.170719527080465 ], [ 4.351767712130244, 51.171404093018275 ], [ 4.352145651011464, 51.172068569676583 ], [ 4.352625385803479, 51.172706556807881 ], [ 4.353202299555698, 51.17331190906026 ], [ 4.353539944637791, 51.173598216631817 ], [ 4.353584871648772, 51.173677196800298 ], [ 4.354064642646467, 51.174315177698389 ], [ 4.354108321505037, 51.174361006701695 ], [ 4.354345884888414, 51.174676901260796 ], [ 4.354765714235334, 51.175117385531628 ], [ 4.354819393183064, 51.175345140437784 ], [ 4.355091976005345, 51.176029697509712 ], [ 4.355469999669714, 51.176694162369067 ], [ 4.355949827448924, 51.177332134881901 ], [ 4.35652684149715, 51.177937469836891 ], [ 4.356816944109141, 51.178183416016424 ], [ 4.356861127204574, 51.178370832801242 ], [ 4.357133757646611, 51.179055384376895 ], [ 4.357237569638351, 51.179237832352136 ], [ 4.357268102876814, 51.179314496625317 ], [ 4.357646184130923, 51.179978953693094 ], [ 4.358126075431424, 51.180616916571225 ], [ 4.358703158320963, 51.18122224014116 ], [ 4.359371877523159, 51.1817890934513 ], [ 4.360125794352635, 51.182312015924403 ], [ 4.36095764866743, 51.182785970002342 ], [ 4.361041249337649, 51.182824946157318 ], [ 4.36103379126468, 51.182920176101732 ], [ 4.361088779002197, 51.183625002336925 ], [ 4.361253428145273, 51.184323046897092 ], [ 4.361526157795551, 51.185007586785815 ], [ 4.361904345807348, 51.18567202878571 ], [ 4.362384353871593, 51.186309972982684 ], [ 4.362669289393238, 51.186608778737863 ], [ 4.362798282262852, 51.186780207731971 ], [ 4.36337550198428, 51.187385507056263 ], [ 4.363582617673211, 51.187561028049203 ], [ 4.363727971605528, 51.187925788544035 ], [ 4.364106214622823, 51.188590222755543 ], [ 4.364586282811475, 51.18922815729556 ], [ 4.365017872665939, 51.189680695278263 ], [ 4.365125085017113, 51.189869012582179 ], [ 4.365605180293362, 51.190506942670375 ], [ 4.366182482532479, 51.191112227418699 ], [ 4.36685143434574, 51.191679036249248 ], [ 4.367120526292444, 51.191865604356174 ], [ 4.367177367970084, 51.192008204991481 ], [ 4.367555693205513, 51.192672627121546 ], [ 4.368035850564747, 51.193310546648163 ], [ 4.368613219028834, 51.193915818869897 ], [ 4.368692175271573, 51.193982711449252 ], [ 4.368752239983187, 51.194062506859872 ], [ 4.369329627047043, 51.19466777540655 ], [ 4.36999866807601, 51.195234565646288 ], [ 4.370172659662598, 51.195355178929788 ], [ 4.370502292849607, 51.195793054083289 ], [ 4.371079724035806, 51.196398313676305 ], [ 4.371373970719754, 51.196647570577753 ], [ 4.371562474258393, 51.196845151862412 ], [ 4.372231573640557, 51.197411928985666 ], [ 4.372985887077704, 51.197934766258193 ], [ 4.373818150606927, 51.198408626942125 ], [ 4.374720348586926, 51.198828945970995 ], [ 4.375683790911728, 51.199191673972599 ], [ 4.376699196756696, 51.199493316323093 ], [ 4.377756784048193, 51.19973096685419 ], [ 4.37859735449635, 51.199863172718345 ], [ 4.378784847970892, 51.200021953569241 ], [ 4.378636965013296, 51.200147264495264 ], [ 4.378059648895125, 51.200752586691394 ], [ 4.377579538257148, 51.201390542822672 ], [ 4.377201259987334, 51.202054990209916 ], [ 4.376928460962576, 51.202739530835707 ], [ 4.376763772779399, 51.203437572923391 ], [ 4.3767087862415, 51.204142394391518 ], [ 4.376764035856298, 51.204847207574154 ], [ 4.376928994496871, 51.205545224583986 ], [ 4.377202078287945, 51.206229722689173 ], [ 4.377580661676278, 51.206894109074049 ], [ 4.378061102547274, 51.207531984359505 ], [ 4.378638777152497, 51.20813720426974 ], [ 4.378936141378888, 51.20838898392951 ], [ 4.379136834802868, 51.208741146339747 ], [ 4.379617315983556, 51.209379014842455 ], [ 4.380195033660502, 51.209984226712933 ], [ 4.380864426444319, 51.210550952074676 ], [ 4.381619049161699, 51.211073731582026 ], [ 4.381628713680522, 51.211079231434994 ], [ 4.382000745113061, 51.211336957194021 ], [ 4.382639910545985, 51.211700681012957 ], [ 4.382918073628121, 51.212069893187909 ], [ 4.383495867472855, 51.212675088292329 ], [ 4.384165338991563, 51.21324179436801 ], [ 4.384769039731985, 51.213659959155422 ], [ 4.385197191883957, 51.214022370211083 ], [ 4.385951919343725, 51.214545121351513 ], [ 4.38662634590209, 51.214928842697795 ], [ 4.386662761696272, 51.214992712971821 ], [ 4.386712605714422, 51.215058858526561 ], [ 4.386798584062746, 51.215274204697586 ], [ 4.387177377596405, 51.215938558002058 ], [ 4.387409690742933, 51.216246835711274 ], [ 4.38752941590702, 51.216752825382123 ], [ 4.387802720931571, 51.217437296003233 ], [ 4.388181546342713, 51.218101645528719 ], [ 4.388215668356723, 51.218146921735681 ], [ 4.388286834052404, 51.218325140146966 ], [ 4.388665673573821, 51.21898948789044 ], [ 4.389146390702146, 51.219627315105548 ], [ 4.389724359028925, 51.220232477979124 ], [ 4.390365238432678, 51.220774796672217 ], [ 4.390720248816294, 51.221397269112693 ], [ 4.391201018873755, 51.222035087371921 ], [ 4.391218023328177, 51.222052890132993 ], [ 4.391078159024063, 51.222199527317805 ], [ 4.390598005681348, 51.222837530997758 ], [ 4.390219738941351, 51.223502014491601 ], [ 4.389947005574584, 51.224186579433933 ], [ 4.389782436550111, 51.224884633813474 ], [ 4.389727621528957, 51.225589455429997 ], [ 4.389728987270184, 51.225606808204574 ], [ 4.38970195441569, 51.225674656994748 ], [ 4.389537376469845, 51.226372710624666 ], [ 4.38948255599461, 51.227077531714805 ], [ 4.389538025903182, 51.227782332602374 ], [ 4.389703256951792, 51.228480325517921 ], [ 4.389976662645926, 51.229164787961061 ], [ 4.390355614335752, 51.229829127459006 ], [ 4.390836466362429, 51.230466945083599 ], [ 4.391414591019654, 51.231072097113859 ], [ 4.392084422999391, 51.231638754249126 ], [ 4.392196142400925, 51.231716091954894 ], [ 4.392342110105165, 51.231839573172309 ], [ 4.392997761324117, 51.232293437071448 ], [ 4.393078258183035, 51.232633343797069 ], [ 4.393351737791008, 51.233317797313269 ], [ 4.393730771342914, 51.233982124904465 ], [ 4.39421171239194, 51.234619927756974 ], [ 4.394789932374652, 51.235225062291981 ], [ 4.395459865065005, 51.235791699377216 ], [ 4.396215060089784, 51.236314380516795 ], [ 4.397048244993612, 51.236788070476059 ], [ 4.397951395257937, 51.237208205832374 ], [ 4.398915811600394, 51.237570738982299 ], [ 4.399932203809408, 51.237872177178566 ], [ 4.400990780304497, 51.238109616219404 ], [ 4.402081342556318, 51.238280768463092 ], [ 4.403193383452427, 51.238383984896693 ], [ 4.404316188655746, 51.238418271044836 ], [ 4.405438939973084, 51.238383296563967 ], [ 4.405506043568614, 51.238377026466793 ], [ 4.406100940988034, 51.238358490318653 ], [ 4.407212818678526, 51.238254585960519 ], [ 4.408197902469518, 51.238099340170479 ], [ 4.408664629139329, 51.238142637234859 ], [ 4.409041613787316, 51.23815413267085 ], [ 4.408993082109535, 51.238781321289196 ], [ 4.409048860973729, 51.239486109733996 ], [ 4.409086244948759, 51.239643709234265 ], [ 4.409106759918086, 51.239902915201377 ], [ 4.40914151900375, 51.240049446880612 ], [ 4.409050143743085, 51.240437595374516 ], [ 4.408995601808718, 51.241142421559239 ], [ 4.409051383537211, 51.24184720934052 ], [ 4.409187589322175, 51.242421376619674 ], [ 4.409142307233729, 51.242535113235384 ], [ 4.408977960932407, 51.243233189233202 ], [ 4.408923414635202, 51.243938014599308 ], [ 4.408949757623772, 51.244270840354424 ], [ 4.408904661305572, 51.244462382527679 ], [ 4.408850112461333, 51.245167207514122 ], [ 4.408905896807817, 51.245871994232274 ], [ 4.408924529717514, 51.245950535139549 ], [ 4.408960866127115, 51.246409599384023 ], [ 4.409126454129559, 51.247107559973017 ], [ 4.409400254383906, 51.247791972420373 ], [ 4.409737191210207, 51.248381930124026 ], [ 4.409726173721255, 51.248396570980532 ], [ 4.409347972281513, 51.249061108905742 ], [ 4.409075370340092, 51.249745710999171 ], [ 4.4089109976064, 51.250443784891196 ], [ 4.40885644185705, 51.251148608192985 ], [ 4.408912233461165, 51.251853393219669 ], [ 4.40892299322844, 51.251898741558726 ], [ 4.408966688129872, 51.252450698304841 ], [ 4.409132297689158, 51.253148657195133 ], [ 4.409406133529208, 51.253833067970284 ], [ 4.409646982610909, 51.254254727196844 ], [ 4.409353628266798, 51.25477011427634 ], [ 4.409080993007833, 51.255454714813041 ], [ 4.408916600218688, 51.25615278711134 ], [ 4.408862037870292, 51.256857608797752 ], [ 4.408917836396541, 51.257562392202999 ], [ 4.408927195907488, 51.257601834053382 ], [ 4.408971490625392, 51.258161297209845 ], [ 4.40909380611106, 51.258676731371025 ], [ 4.408721963936603, 51.258991681155443 ], [ 4.408144309581421, 51.259597136195467 ], [ 4.407664004538272, 51.260235199655803 ], [ 4.40728567757847, 51.260899727823343 ], [ 4.407012976060113, 51.261584321902149 ], [ 4.406848530653697, 51.262282389599932 ], [ 4.406793929838065, 51.262987208587624 ], [ 4.406849704418852, 51.263691991222018 ], [ 4.40701532222555, 51.264389949908654 ], [ 4.407289193045633, 51.265074362476035 ], [ 4.407668683755539, 51.265738636930905 ], [ 4.408150143509826, 51.26637637497064 ], [ 4.408728938752518, 51.266981433640048 ], [ 4.409399497719048, 51.267547984536861 ], [ 4.410155364004992, 51.268070569994741 ], [ 4.41098925868916, 51.268544155700134 ], [ 4.411893150414889, 51.268964179234175 ], [ 4.41285833275536, 51.269326594070108 ], [ 4.41387550811715, 51.269627908600157 ], [ 4.414934877371821, 51.269865219813539 ], [ 4.416026234348871, 51.27003624129987 ], [ 4.417139064275325, 51.27013932530587 ], [ 4.418262645208254, 51.270173478631861 ], [ 4.419386151476821, 51.270138372214085 ], [ 4.419433499525474, 51.270133945428505 ], [ 4.419464663405033, 51.270132971479377 ], [ 4.420577269754401, 51.270028942826393 ], [ 4.421668256588211, 51.269856994984615 ], [ 4.422727112704589, 51.269618784632343 ], [ 4.423743636883459, 51.269316606842452 ], [ 4.424708036278153, 51.26895337294205 ], [ 4.425611020847433, 51.268532582428939 ], [ 4.426443892913913, 51.268058289217478 ], [ 4.427198630982827, 51.267535062540652 ], [ 4.427867967011862, 51.266967942886886 ], [ 4.428445456387165, 51.266362393398772 ], [ 4.428925539932367, 51.265724247203366 ], [ 4.42930359735564, 51.265059651184011 ], [ 4.429575991623502, 51.264375006736898 ], [ 4.429740103838787, 51.263676908084697 ], [ 4.429794358292578, 51.262972078742848 ], [ 4.429738237455346, 51.262267306751383 ], [ 4.429603589884299, 51.261701030298156 ], [ 4.429908911022971, 51.261442287358641 ], [ 4.430486305375225, 51.260836726557287 ], [ 4.430966304024992, 51.260198570656151 ], [ 4.431344287497481, 51.25953396663197 ], [ 4.431616619470658, 51.258849315957875 ], [ 4.431780681646376, 51.258151212916424 ], [ 4.431834898796566, 51.25744638106525 ], [ 4.431778753749802, 51.256741608468445 ], [ 4.431769375067312, 51.256702168413746 ], [ 4.431724807990003, 51.256142713489425 ], [ 4.431558849362568, 51.255444787095158 ], [ 4.431284678663333, 51.254760428063278 ], [ 4.431043631165176, 51.254338812984301 ], [ 4.431336742865569, 51.253823372065128 ], [ 4.431609041574344, 51.253138719833267 ], [ 4.431773083757919, 51.252440615196988 ], [ 4.431827294379596, 51.251735781729245 ], [ 4.431771156329601, 51.251031007509738 ], [ 4.431760374527579, 51.2509856612349 ], [ 4.431721025652607, 51.25049164867152 ], [ 4.43222368890122, 51.250444577610011 ], [ 4.43331417422114, 51.250272521068119 ], [ 4.434372525769888, 51.250034204657844 ], [ 4.435388547190897, 51.249731924473707 ], [ 4.436352450483189, 51.249368592829072 ], [ 4.436654679486324, 51.249227649339943 ], [ 4.436661040131598, 51.249225251697354 ], [ 4.436997671399665, 51.249324933310994 ], [ 4.437355249025185, 51.249572068757601 ], [ 4.438189089046828, 51.250045466336786 ], [ 4.439092867047752, 51.250465285266642 ], [ 4.439649004830815, 51.250674021123686 ], [ 4.439829421711206, 51.250757824133132 ], [ 4.440794444140823, 51.251120013807778 ], [ 4.441480094694584, 51.251323006154372 ], [ 4.441914190790333, 51.25162297643859 ], [ 4.442748113827527, 51.252096341496767 ], [ 4.443651972680815, 51.252516125254495 ], [ 4.444192222433161, 51.252718860547681 ], [ 4.444456100352704, 51.252841409560197 ], [ 4.444558183294776, 51.252948039367645 ], [ 4.444766076921693, 51.253123566122369 ], [ 4.444998535647998, 51.253366374129371 ], [ 4.445235534570066, 51.253566470343486 ], [ 4.445255465776072, 51.253601311871854 ], [ 4.445737314503488, 51.254238900055469 ], [ 4.446316446996844, 51.254843777803629 ], [ 4.446716562785656, 51.255181567509965 ], [ 4.446849753098768, 51.255357793487754 ], [ 4.447428913941717, 51.255962665518531 ], [ 4.447568078979733, 51.256080146966028 ], [ 4.447607426545707, 51.256148919397837 ], [ 4.448089333806028, 51.256786497349069 ], [ 4.448668528501827, 51.257391362964199 ], [ 4.449229988173066, 51.257865304454775 ], [ 4.449551714335089, 51.258290920120203 ], [ 4.450130946719586, 51.258895778210089 ], [ 4.450801892674893, 51.259462096309967 ], [ 4.451463114373687, 51.259918816838614 ], [ 4.451474134963267, 51.259965074259824 ], [ 4.451748632858581, 51.260649385048119 ], [ 4.45212872139118, 51.261313518016301 ], [ 4.452610743953742, 51.261951076223028 ], [ 4.453190061564902, 51.262555918443759 ], [ 4.453861097423673, 51.26312221836001 ], [ 4.454617390526903, 51.263644520722025 ], [ 4.455366162000755, 51.264069293550385 ], [ 4.45545649758794, 51.264131677107663 ], [ 4.456290782147303, 51.264604944319515 ], [ 4.457195005728575, 51.265024622495154 ], [ 4.458160458703407, 51.265386668434459 ], [ 4.459177840867046, 51.26568759408319 ], [ 4.460237351095273, 51.265924500176993 ], [ 4.461328781856726, 51.266095104208475 ], [ 4.462441617665731, 51.266197762446275 ], [ 4.463565136521762, 51.266231485792986 ], [ 4.46468851335206, 51.266195949327631 ], [ 4.465800924454189, 51.266091495440406 ], [ 4.466891651925256, 51.265919130529497 ], [ 4.467950187064822, 51.265680515291415 ], [ 4.468966331748517, 51.265377948699765 ], [ 4.469930296789655, 51.265014345827083 ], [ 4.470832796335838, 51.26459320972549 ], [ 4.471665137386787, 51.264118597638102 ], [ 4.47241930356784, 51.26359508186885 ], [ 4.473088032350245, 51.263027705690178 ], [ 4.473664884973835, 51.26242193471451 ], [ 4.47414430839947, 51.261783604200986 ], [ 4.474521688696791, 51.261118862806903 ], [ 4.474793395356595, 51.260434113326951 ], [ 4.474956816105875, 51.259735950993658 ], [ 4.475010381895843, 51.259031099933956 ], [ 4.474953581828923, 51.258326348395187 ], [ 4.474786967887946, 51.257628483364932 ], [ 4.474512149429386, 51.256944225214674 ], [ 4.474131777500994, 51.256280162996212 ], [ 4.473649519141889, 51.255642691013456 ], [ 4.473070021919127, 51.255037947279426 ], [ 4.472398869047915, 51.254471754449582 ], [ 4.471642525532366, 51.253949563798678 ], [ 4.471415420741138, 51.253820758419224 ], [ 4.470883522314738, 51.25345351468588 ], [ 4.470873792973601, 51.253447996416376 ], [ 4.470612649301027, 51.252797582905309 ], [ 4.47023236679675, 51.252133507044697 ], [ 4.469750204701137, 51.251496018107268 ], [ 4.469170809654019, 51.250891254269419 ], [ 4.468609231219487, 51.250417406079741 ], [ 4.468287385364263, 51.249991840893685 ], [ 4.467708028004287, 51.249387069527657 ], [ 4.467568832185252, 51.249269611454771 ], [ 4.467529460970059, 51.249200845473069 ], [ 4.467047366194826, 51.248563344771426 ], [ 4.466468042687449, 51.247958566987165 ], [ 4.466067845760585, 51.247620843101856 ], [ 4.465934604890467, 51.247444638214816 ], [ 4.465355309731319, 51.24683985471092 ], [ 4.465118258638505, 51.246639798263963 ], [ 4.465098315560421, 51.246604959985483 ], [ 4.464616280896641, 51.24596744871527 ], [ 4.464037021208068, 51.245362658398967 ], [ 4.463829089627461, 51.24518716496366 ], [ 4.46359657359875, 51.244944393163657 ], [ 4.462925681185903, 51.244378144313117 ], [ 4.462169607630309, 51.243855891000585 ], [ 4.461335634809596, 51.243382661281395 ], [ 4.460439025134598, 51.242966368611981 ], [ 4.46033692772462, 51.242859752082254 ], [ 4.45966610492422, 51.242293484275457 ], [ 4.458910101712853, 51.241771209696537 ], [ 4.458076199291093, 51.241297956605678 ], [ 4.457172428093683, 51.240878281160192 ], [ 4.456632259137733, 51.24067560417695 ], [ 4.456361187454389, 51.24054972394832 ], [ 4.455396262936056, 51.240187659717947 ], [ 4.454710715596749, 51.239984747115656 ], [ 4.454276645545045, 51.239684822389655 ], [ 4.453442827499339, 51.239211536243154 ], [ 4.452539138478615, 51.238791825050107 ], [ 4.452004556046636, 51.238591206641459 ], [ 4.4520369562324, 51.238167424419551 ], [ 4.451980528951993, 51.237462655997831 ], [ 4.45181433355042, 51.236764752826083 ], [ 4.451539975350022, 51.236080435644055 ], [ 4.451160100963547, 51.235416294073026 ], [ 4.450678372637023, 51.234778723181932 ], [ 4.45011157002129, 51.234186542747835 ], [ 4.450785897684781, 51.234165274567843 ], [ 4.450834321622687, 51.234160730488256 ], [ 4.450919202232576, 51.234200159115019 ], [ 4.451883968032279, 51.234562260727728 ], [ 4.452900636902895, 51.234863244055248 ], [ 4.453959414594458, 51.235100209277768 ], [ 4.455050100635984, 51.235270873318463 ], [ 4.456162186720089, 51.235373591868026 ], [ 4.457284958073071, 51.235407375248045 ], [ 4.458407596827691, 51.235371897959091 ], [ 4.459519286396072, 51.235267501821298 ], [ 4.46060931583015, 51.235095192676212 ], [ 4.461667183157382, 51.234856630682984 ], [ 4.462682696689348, 51.234554114302 ], [ 4.463257289494378, 51.234337277828025 ], [ 4.464083918844939, 51.234647416110924 ], [ 4.465100668331139, 51.234948294555359 ], [ 4.465212549152236, 51.234973322131502 ], [ 4.465796519297595, 51.235376742589025 ], [ 4.466630394165949, 51.235849942367068 ], [ 4.467534153014097, 51.236269546387284 ], [ 4.468238514718891, 51.236533766684971 ], [ 4.468593130543002, 51.236698402225969 ], [ 4.469558085319998, 51.237060359301786 ], [ 4.470574922772741, 51.23736119039831 ], [ 4.471633847025552, 51.237597997162247 ], [ 4.472724656194064, 51.23776849804333 ], [ 4.473146554297941, 51.237807401687284 ], [ 4.473700739007579, 51.238015245498545 ], [ 4.474717624026793, 51.238316040866756 ], [ 4.475776591017436, 51.238552810452575 ], [ 4.476867437683046, 51.238723273063876 ], [ 4.477979654167312, 51.238825786332072 ], [ 4.479102524439157, 51.238859362556532 ], [ 4.480225229677684, 51.238823678233793 ], [ 4.481336952654296, 51.238719077178622 ], [ 4.482426982099351, 51.238546567207081 ], [ 4.483484816040927, 51.238307810413069 ], [ 4.484500263113433, 51.238005107133787 ], [ 4.485463540853885, 51.237641373758343 ], [ 4.486365370033561, 51.237220114595729 ], [ 4.48719706411186, 51.236745388074013 ], [ 4.48795061294746, 51.236221767599147 ], [ 4.488618759958467, 51.235654297451418 ], [ 4.489195071987763, 51.235048444147836 ], [ 4.489674001201492, 51.234410043739878 ], [ 4.490050938426689, 51.233745245557259 ], [ 4.490322257417965, 51.233060452940911 ], [ 4.490485349631562, 51.232362261538114 ], [ 4.490538649177658, 51.231657395755029 ], [ 4.490481647717115, 51.230952643980146 ], [ 4.490455732788917, 51.230844190147295 ], [ 4.490448595902079, 51.230755949132757 ], [ 4.490501102098456, 51.230531160502707 ], [ 4.490554399313228, 51.229826294202525 ], [ 4.490509229632231, 51.229267809351576 ], [ 4.490510258779633, 51.229254198468659 ], [ 4.490490492998788, 51.229009807069254 ], [ 4.491084527336858, 51.229102576913888 ], [ 4.49112832760077, 51.229112365391934 ], [ 4.492219009476215, 51.229282687061925 ], [ 4.493331034462741, 51.229385056364997 ], [ 4.494453688374838, 51.229418486987612 ], [ 4.49467516595218, 51.229411418066121 ], [ 4.495283010766511, 51.229693451245232 ], [ 4.49624802770678, 51.230055191559956 ], [ 4.497264884523556, 51.230355794024241 ], [ 4.498323785152867, 51.230592362487535 ], [ 4.499294873054503, 51.230743941189381 ], [ 4.499545350823694, 51.230799896059942 ], [ 4.500636102924268, 51.230970139987377 ], [ 4.501148519118366, 51.231017273673153 ], [ 4.501251093404841, 51.231055716669999 ], [ 4.50226800430372, 51.231356275996902 ], [ 4.503326953044638, 51.231592799569405 ], [ 4.504417737505702, 51.231763008565579 ], [ 4.504567113186015, 51.231776743742337 ], [ 4.505005322520642, 51.231845119333677 ], [ 4.505439399686735, 51.231885030150636 ], [ 4.505573580438138, 51.231935311094936 ], [ 4.50659053839137, 51.232235833149545 ], [ 4.50764952904165, 51.232472317935546 ], [ 4.508740349862961, 51.232642487004654 ], [ 4.509852491247033, 51.232744700816433 ], [ 4.510975237886059, 51.232777974555468 ], [ 4.512097772150686, 51.232741987632743 ], [ 4.513209278460619, 51.23263708677851 ], [ 4.514299047635335, 51.232464282697293 ], [ 4.515356580212641, 51.232225240316595 ], [ 4.516371687732972, 51.231922262724886 ], [ 4.517334591007566, 51.231558268953918 ], [ 4.517423348203309, 51.231516766977187 ], [ 4.51810434867351, 51.231259328122007 ], [ 4.519005759343906, 51.230837819072306 ], [ 4.519837007089755, 51.230362861888992 ], [ 4.520590086072658, 51.229839032199394 ], [ 4.520632910330576, 51.229802622718026 ], [ 4.520636783193734, 51.229799928768017 ], [ 4.52130444023234, 51.229232272594786 ], [ 4.521880248048421, 51.228626258551415 ], [ 4.522358663667175, 51.227987724236634 ], [ 4.522735082864348, 51.227322820268881 ], [ 4.523005884385147, 51.226637951006801 ], [ 4.523168464670183, 51.225939712834524 ], [ 4.523221262759727, 51.225234830607342 ], [ 4.523163775142984, 51.224530092870737 ], [ 4.522996560416405, 51.223832286477467 ], [ 4.522721233713546, 51.223148131232435 ], [ 4.52234045096738, 51.222484215194854 ], [ 4.521857883163726, 51.221846931259492 ], [ 4.521278180840167, 51.22124241562743 ], [ 4.520606929178036, 51.220676488756759 ], [ 4.519850594124573, 51.220154599360612 ], [ 4.519016460067587, 51.219681771989713 ], [ 4.518112559664919, 51.21926255870185 ], [ 4.517147596505182, 51.218900995281849 ], [ 4.516130861343811, 51.218600562431178 ], [ 4.515072142719016, 51.21836415229884 ], [ 4.513981632804857, 51.218194040673822 ], [ 4.51286982940353, 51.218091865105208 ], [ 4.511747435014978, 51.218058609159428 ], [ 4.511277254567831, 51.21807368724685 ], [ 4.510521882138353, 51.217904978167596 ], [ 4.509431399563752, 51.217734824543427 ], [ 4.509282067432106, 51.217721095434399 ], [ 4.508843984555465, 51.217652735309478 ], [ 4.50833170744442, 51.217605634718701 ], [ 4.508229156907231, 51.217567197659861 ], [ 4.507212508293019, 51.217266687961853 ], [ 4.506153865172959, 51.217030197848601 ], [ 4.505183040561795, 51.216878674650772 ], [ 4.504932630804607, 51.216822731414354 ], [ 4.503842193935225, 51.216652526167465 ], [ 4.502730449513004, 51.216550255191613 ], [ 4.501608099470592, 51.216516902971662 ], [ 4.50138668418681, 51.216523984912563 ], [ 4.500778974121038, 51.216241981647549 ], [ 4.500530481715717, 51.216148819419182 ], [ 4.501118838700447, 51.215648721043728 ], [ 4.501694741092816, 51.215042802075622 ], [ 4.502173293733842, 51.214404346042414 ], [ 4.502549891075738, 51.213739502809048 ], [ 4.502820910144115, 51.21305467614976 ], [ 4.502983745280646, 51.212356462039104 ], [ 4.503036833067684, 51.211651585101436 ], [ 4.502979667201341, 51.210946833832047 ], [ 4.502812803176831, 51.210248995214897 ], [ 4.502537852748276, 51.209564789366134 ], [ 4.502157468223648, 51.208900804832979 ], [ 4.501675316753174, 51.208263435170714 ], [ 4.501096044865186, 51.207658817406532 ], [ 4.50042523359672, 51.207092772982733 ], [ 4.499669344655552, 51.206570751744906 ], [ 4.498835658135609, 51.206097779513669 ], [ 4.497932202387693, 51.205678409741971 ], [ 4.49696767672159, 51.20531667972157 ], [ 4.495951367683198, 51.205016071758102 ], [ 4.494893059710864, 51.204779479686572 ], [ 4.494209989192535, 51.204672771546235 ], [ 4.494300644249795, 51.204284301105488 ], [ 4.494353854064117, 51.203579425863317 ], [ 4.494296829277989, 51.202874668192834 ], [ 4.494130124026337, 51.202176815139914 ], [ 4.493855348532914, 51.201492586960121 ], [ 4.493475153420006, 51.200828572416157 ], [ 4.492993204013113, 51.200191165352578 ], [ 4.492414144894401, 51.199586503157143 ], [ 4.491743555052042, 51.199020407700182 ], [ 4.490987894061982, 51.198498329319037 ], [ 4.490154439823844, 51.198025294384728 ], [ 4.489251218452771, 51.197605856954112 ], [ 4.488286927002985, 51.197244054970547 ], [ 4.487270849766598, 51.196943371432603 ], [ 4.486212768951572, 51.196706700902944 ], [ 4.48512287059554, 51.196536321677506 ], [ 4.484011646616965, 51.196433873881659 ], [ 4.482889793941167, 51.196400343702379 ], [ 4.481768111666294, 51.196436053907895 ], [ 4.480657397252456, 51.196540660744667 ], [ 4.479568342726549, 51.196713157242066 ], [ 4.478511431895038, 51.196951882892677 ], [ 4.477496839547568, 51.197254539616011 ], [ 4.476550242991379, 51.197612202747862 ], [ 4.476465196310974, 51.197614906048372 ], [ 4.475354441942454, 51.197719462996616 ], [ 4.474265340292967, 51.197891910546247 ], [ 4.473208375622235, 51.198130588661073 ], [ 4.472609163681855, 51.198309299829603 ], [ 4.472130202057028, 51.198417449297168 ], [ 4.471877358523905, 51.198492855521096 ], [ 4.471697018664027, 51.198487447889178 ], [ 4.470575277651452, 51.198523051828509 ], [ 4.469464488462651, 51.198627553381385 ], [ 4.468801035905912, 51.198732568070483 ], [ 4.468492028995672, 51.198761635244672 ], [ 4.467402877652852, 51.198934019483055 ], [ 4.466345854264787, 51.199172636125724 ], [ 4.465331134703692, 51.19947518814157 ], [ 4.464368488124668, 51.199838762979269 ], [ 4.46346718300439, 51.200259860570917 ], [ 4.462712959556241, 51.200690434501077 ], [ 4.462355662015209, 51.200724023872503 ], [ 4.461266442182049, 51.200896351428248 ], [ 4.46020934294312, 51.201134913005731 ], [ 4.459194540900272, 51.201437412104006 ], [ 4.458231806002054, 51.201800936681146 ], [ 4.45737158106617, 51.202202755000506 ], [ 4.456454967350208, 51.202175156223213 ], [ 4.455333126048092, 51.202210615439149 ], [ 4.454222214925929, 51.202314973580926 ], [ 4.453132927902813, 51.202487226071952 ], [ 4.452075751021516, 51.202725714753818 ], [ 4.451060861630675, 51.203028143827339 ], [ 4.450098030518987, 51.203391601924814 ], [ 4.450094478268027, 51.203393260801256 ], [ 4.449320389988988, 51.203685460692284 ], [ 4.448851614464607, 51.203904367450548 ], [ 4.449239881296162, 51.2033871962592 ], [ 4.449617144050893, 51.202722518967292 ], [ 4.449888876151228, 51.20203781089851 ], [ 4.450052465066546, 51.201339666887208 ], [ 4.450106340115603, 51.200634810884686 ], [ 4.450049987409733, 51.199930031186817 ], [ 4.449883954611344, 51.199232115053526 ], [ 4.449609845469227, 51.198547783349532 ], [ 4.449230304190607, 51.197883625836262 ], [ 4.448748989807493, 51.197246037736491 ], [ 4.448170540790624, 51.196641158182693 ], [ 4.44750053025751, 51.196074811139361 ], [ 4.446745412210527, 51.195552449367291 ], [ 4.445912459326316, 51.195079101966883 ], [ 4.445009692897663, 51.194659326004142 ], [ 4.444045805603312, 51.194297162682105 ], [ 4.443030077848658, 51.193996098478401 ], [ 4.441972288480934, 51.193759031620594 ], [ 4.44088262073522, 51.193588244220038 ], [ 4.439771564312412, 51.193485380331474 ], [ 4.438649814526487, 51.19345143014737 ], [ 4.437528169485898, 51.193486720478951 ], [ 4.4364174262922, 51.193590911614514 ], [ 4.435328277248323, 51.193763000585072 ], [ 4.434323485304226, 51.193989544278153 ], [ 4.434968431292658, 51.193541613066927 ], [ 4.435636611355645, 51.192974432912969 ], [ 4.436213084057274, 51.192368827843168 ], [ 4.436331421143973, 51.192211234126745 ], [ 4.43641918693806, 51.192161157210109 ], [ 4.437172585413262, 51.191637851260971 ], [ 4.437840711419217, 51.191070658230494 ], [ 4.438417131991794, 51.19046504196703 ], [ 4.438542358920013, 51.190298253011534 ], [ 4.43911786336396, 51.189809657247537 ], [ 4.439694251782275, 51.18920403446198 ], [ 4.440173387614639, 51.188565823248375 ], [ 4.44055065968688, 51.187901171115243 ], [ 4.440782982199107, 51.187315883409546 ], [ 4.440927299893489, 51.187164231718633 ], [ 4.441406397917005, 51.186526015008084 ], [ 4.441783635935559, 51.18586135842078 ], [ 4.442055384794934, 51.185176663935231 ], [ 4.442161807520877, 51.184722654288827 ], [ 4.442225562044024, 51.184610318434679 ], [ 4.442410446105121, 51.184144464989664 ], [ 4.44268551159508, 51.183855385718587 ], [ 4.442946467919629, 51.183507716227624 ], [ 4.443077493702016, 51.18339644792438 ], [ 4.443653751523422, 51.18279080434381 ], [ 4.444132767362261, 51.182152575515488 ], [ 4.444255953247378, 51.181935490343754 ], [ 4.44491821425649, 51.181475288572024 ], [ 4.445089499309264, 51.181329817062498 ], [ 4.445444891256749, 51.181082849789902 ], [ 4.445643135279136, 51.180914478122432 ], [ 4.445743973992939, 51.18088442070929 ], [ 4.446279366446832, 51.180682245249784 ], [ 4.446516747338625, 51.180611486020275 ], [ 4.447479136368355, 51.180248053929326 ], [ 4.447836903807269, 51.180080905810904 ], [ 4.448190447098821, 51.180024989625124 ], [ 4.449247129612563, 51.179786533627663 ], [ 4.450261525345981, 51.179484117441319 ], [ 4.451223861965409, 51.179120654689008 ], [ 4.45212486930744, 51.1786996470722 ], [ 4.452482460359541, 51.178495466299395 ], [ 4.452618886375117, 51.178431717244223 ], [ 4.453449876020001, 51.17795721724427 ], [ 4.454202854236121, 51.177433799895397 ], [ 4.454312130820867, 51.177340959536167 ], [ 4.454516704363702, 51.177263682590514 ], [ 4.454991986723433, 51.177307641502892 ], [ 4.456113360356939, 51.177341436765303 ], [ 4.457234603297099, 51.177305969812025 ], [ 4.458344912410809, 51.177201582363473 ], [ 4.458885849657349, 51.177115971043612 ], [ 4.458901792337473, 51.177114472010722 ], [ 4.459990465895141, 51.176942164686693 ], [ 4.460945630681161, 51.176726495969184 ], [ 4.461980664008539, 51.176757637650084 ], [ 4.46310188846049, 51.176722114997837 ], [ 4.464212170557563, 51.176617672378562 ], [ 4.465018911757641, 51.176489948390589 ], [ 4.465121492301311, 51.176486696212528 ], [ 4.466231764277983, 51.176382234601476 ], [ 4.467320393688737, 51.176209859676675 ], [ 4.468376892055518, 51.175971232230701 ], [ 4.469391080884026, 51.17566865135408 ], [ 4.46953509337815, 51.175614224188251 ], [ 4.469746458355108, 51.175647311572845 ], [ 4.470857156112825, 51.175749894321655 ], [ 4.471978503778689, 51.175783538996491 ], [ 4.473099697208838, 51.1757479214344 ], [ 4.474209933747524, 51.175643384806904 ], [ 4.475021983774635, 51.17551474447545 ], [ 4.475215215637935, 51.17550860170914 ], [ 4.476325441744925, 51.175404045188642 ], [ 4.477414011051203, 51.175231577179488 ], [ 4.477632684735869, 51.175182164973812 ], [ 4.477808801664511, 51.175187439796517 ], [ 4.47781010563614, 51.17518739831371 ], [ 4.478098646314939, 51.175196039731489 ], [ 4.479219820957001, 51.175160364071068 ], [ 4.480330029807415, 51.175055769898037 ], [ 4.481418576191363, 51.174883264961856 ], [ 4.482474972431526, 51.174644511307669 ], [ 4.48348904101856, 51.174341809241909 ], [ 4.484451012773543, 51.173978075141477 ], [ 4.484816695402247, 51.173807027911955 ], [ 4.485585627299473, 51.174243736828679 ], [ 4.485617930290845, 51.174258747119936 ], [ 4.486087743449771, 51.174525567024055 ], [ 4.486990489753842, 51.174945032328523 ], [ 4.487954310454843, 51.175306847971804 ], [ 4.488969921073317, 51.17560752811896 ], [ 4.490027537555164, 51.175844175871511 ], [ 4.491116970619234, 51.176014511211513 ], [ 4.492227724033905, 51.17611689299688 ], [ 4.49334909587055, 51.176150334793981 ], [ 4.494470281752174, 51.176114514394655 ], [ 4.495580479095945, 51.17600977692468 ], [ 4.496668991338261, 51.175837131514164 ], [ 4.497725331131402, 51.175598241561651 ], [ 4.49873932151078, 51.175295408686722 ], [ 4.499701194052116, 51.174931550526409 ], [ 4.50060168306748, 51.174510172591191 ], [ 4.501432114928459, 51.174035334452469 ], [ 4.502184491652748, 51.173511610590523 ], [ 4.502851567947059, 51.172944046280648 ], [ 4.50342692096376, 51.172338108945823 ], [ 4.503905012100129, 51.171699635445954 ], [ 4.504281240247286, 51.171034775813787 ], [ 4.504551985979469, 51.170349933981193 ], [ 4.504714646262785, 51.169651706068592 ], [ 4.50476765935485, 51.168946816832943 ], [ 4.504710519662089, 51.168242054888019 ], [ 4.504543782418553, 51.167544207320489 ], [ 4.504269058148612, 51.166859994332683 ], [ 4.503888996974093, 51.166196004540893 ], [ 4.503407262924003, 51.16555863155115 ], [ 4.502828498500763, 51.16495401242306 ], [ 4.502158279849772, 51.164387968612388 ], [ 4.501403062968746, 51.163865949959217 ], [ 4.500570121478207, 51.163392982259765 ], [ 4.500537821198414, 51.163377975996546 ], [ 4.500068037644821, 51.16311121245333 ], [ 4.499165402678861, 51.162691845235344 ], [ 4.498201755531664, 51.162330119357755 ], [ 4.49718637429272, 51.162029517086744 ], [ 4.49612903447087, 51.161792932202864 ], [ 4.495039914972516, 51.161622642177811 ], [ 4.493929500221241, 51.16152028627841 ], [ 4.492808479355817, 51.161486849807154 ], [ 4.491687643470885, 51.161522654630232 ], [ 4.490577781882898, 51.161627356083258 ], [ 4.48948957841308, 51.161799946284681 ], [ 4.488433508678942, 51.162038763824889 ], [ 4.487419739376486, 51.162341509738475 ], [ 4.4864580305166, 51.162705269607038 ], [ 4.486092440856758, 51.16287632263144 ], [ 4.485323691438553, 51.162439615147683 ], [ 4.484421201912776, 51.162020135132373 ], [ 4.483457682881403, 51.161658288853253 ], [ 4.482442411201906, 51.161357559735769 ], [ 4.481385161329619, 51.161120842781642 ], [ 4.480296111306037, 51.160950416734089 ], [ 4.47918574488672, 51.160847922169289 ], [ 4.47806475074568, 51.160814345724624 ], [ 4.478063447175695, 51.1608143872105 ], [ 4.477774995382492, 51.160805745659673 ], [ 4.476654164342448, 51.160841407798571 ], [ 4.475544285258336, 51.16094596798095 ], [ 4.474456042119423, 51.16111841968516 ], [ 4.474237430942282, 51.161167826270926 ], [ 4.474061367301262, 51.161162546095305 ], [ 4.472940524860576, 51.161198172980598 ], [ 4.471830628980141, 51.161302698244462 ], [ 4.471018817348915, 51.161431317323263 ], [ 4.470825643195945, 51.161437453257065 ], [ 4.469715736892966, 51.161541958633663 ], [ 4.468627458336921, 51.161714356584596 ], [ 4.467571283867136, 51.161952987550961 ], [ 4.466557381186506, 51.162255554363526 ], [ 4.466413406426984, 51.16230997817221 ], [ 4.466202104193297, 51.162276884657359 ], [ 4.465091737187586, 51.16217425761775 ], [ 4.463970721356856, 51.162140547394216 ], [ 4.462849847747487, 51.162176078488088 ], [ 4.461739906038712, 51.162280508869983 ], [ 4.460933401401391, 51.162408211146094 ], [ 4.460830851498923, 51.162411459704281 ], [ 4.459720899678577, 51.162515871099906 ], [ 4.458632561523657, 51.162688176874966 ], [ 4.457677673260258, 51.162903828028014 ], [ 4.456642949938008, 51.162872648481077 ], [ 4.455522053180911, 51.162908110011109 ], [ 4.454412077683248, 51.163012471488209 ], [ 4.453871295643634, 51.163098062775191 ], [ 4.453855357588348, 51.163099561137024 ], [ 4.452766984182356, 51.163271812815793 ], [ 4.452304600212526, 51.163376211176441 ], [ 4.451659223779862, 51.163316486625121 ], [ 4.45053819023985, 51.163282648901259 ], [ 4.449417279005929, 51.163318052480108 ], [ 4.44830728011926, 51.163422356559764 ], [ 4.447218878721301, 51.163594557083918 ], [ 4.446162552332704, 51.163832996394213 ], [ 4.445675145387471, 51.163978334773468 ], [ 4.445637983876464, 51.163984213485691 ], [ 4.444581640597526, 51.164222638620146 ], [ 4.443567539679148, 51.164525007772731 ], [ 4.44260544432102, 51.164888410152265 ], [ 4.441704617692182, 51.165309347350998 ], [ 4.440873733811379, 51.165783766984092 ], [ 4.440750257622526, 51.165869590890146 ], [ 4.440349636279683, 51.166098331657693 ], [ 4.439596685586247, 51.166621662930176 ], [ 4.439487404829956, 51.166714490049863 ], [ 4.43898793265932, 51.166903119738407 ], [ 4.438087034535252, 51.167324029024428 ], [ 4.438034058831924, 51.167354273366293 ], [ 4.43778279816635, 51.167394000722503 ], [ 4.436726337616366, 51.167632355286237 ], [ 4.435712111752399, 51.167934656595094 ], [ 4.435176819738682, 51.168136785134898 ], [ 4.434939485095368, 51.168207521910389 ], [ 4.433977246681102, 51.16857085349433 ], [ 4.433076271193637, 51.168991724293214 ], [ 4.432245234083978, 51.169466082561577 ], [ 4.431492138214639, 51.169989361498615 ], [ 4.431293889550858, 51.170157710111823 ], [ 4.431193064706325, 51.170187755311929 ], [ 4.430230756312938, 51.170551056101331 ], [ 4.429329708826479, 51.170971898005753 ], [ 4.428498598390741, 51.17144622955793 ], [ 4.427745428573869, 51.171969484214351 ], [ 4.427574123820087, 51.172114931088522 ], [ 4.427218705608447, 51.172361845431503 ], [ 4.426550718327988, 51.172928982429205 ], [ 4.425974360353063, 51.173534544833892 ], [ 4.425495184677385, 51.174172702101856 ], [ 4.425371932027557, 51.174389768343289 ], [ 4.424709578853885, 51.174849861761963 ], [ 4.424041525478448, 51.175416984036623 ], [ 4.423465104225701, 51.176022533628178 ], [ 4.423204044642997, 51.176370161064405 ], [ 4.423072991211726, 51.17648140761986 ], [ 4.422496544247142, 51.177086952241318 ], [ 4.422017284547664, 51.177725094543042 ], [ 4.421639830807647, 51.17838969005156 ], [ 4.42145476222438, 51.178855511993973 ], [ 4.42117959470884, 51.179144542372939 ], [ 4.42070029587285, 51.179782678833995 ], [ 4.420322806737254, 51.180447269615883 ], [ 4.420050766579264, 51.181131915318716 ], [ 4.419944136939058, 51.181585905649207 ], [ 4.419880332916061, 51.181698229604159 ], [ 4.419647776223381, 51.182283477439725 ], [ 4.419503404477305, 51.182435103414704 ], [ 4.419378130607033, 51.182601872687655 ], [ 4.418802508396313, 51.183090373634457 ], [ 4.418225924381611, 51.18369589589684 ], [ 4.418121078018183, 51.1838354613405 ], [ 4.417852381375138, 51.183988724156258 ], [ 4.417098889758963, 51.184511908434125 ], [ 4.416430605572655, 51.18507898558385 ], [ 4.415853966208778, 51.185684495811714 ], [ 4.415374527370994, 51.186322609076811 ], [ 4.415009195080382, 51.18696555999837 ], [ 4.41454944483335, 51.18718012333111 ], [ 4.413717895483011, 51.187654347955714 ], [ 4.412964298318602, 51.188177505133226 ], [ 4.41229591138634, 51.188744558102421 ], [ 4.41207104330906, 51.188980638259636 ], [ 4.41191946918382, 51.189109228335973 ], [ 4.411342721473066, 51.189714715614144 ], [ 4.411302124189231, 51.189768736426934 ], [ 4.41093144633358, 51.189557862091306 ], [ 4.410399140888876, 51.189107374705934 ], [ 4.40964455103481, 51.188584774530952 ], [ 4.409362572350094, 51.18842434906545 ], [ 4.40907745596479, 51.188125791449579 ], [ 4.408408042277062, 51.187559220993279 ], [ 4.407653499758323, 51.187036607793573 ], [ 4.406870757861007, 51.186591240855535 ], [ 4.406786403939066, 51.186519840528838 ], [ 4.406031896388843, 51.185997216765877 ], [ 4.405199527177961, 51.185523580732557 ], [ 4.404347260132181, 51.1851267494567 ], [ 4.404036160454875, 51.184581154159964 ], [ 4.403701021667659, 51.184136376351518 ], [ 4.40371764551085, 51.183921603118876 ], [ 4.403662013589488, 51.183216796923396 ], [ 4.403496734032739, 51.182518811287608 ], [ 4.40322340333368, 51.181834367747555 ], [ 4.402936619399862, 51.181331356920261 ], [ 4.402901757322336, 51.180889569542536 ], [ 4.402736497378181, 51.180191582225874 ], [ 4.40246319145854, 51.179507136321902 ], [ 4.402084476034571, 51.178842822693618 ], [ 4.401604002185737, 51.178205038068924 ], [ 4.401026400290293, 51.177599923474311 ], [ 4.400357235311176, 51.177033305139005 ], [ 4.399602953112494, 51.176510638437129 ], [ 4.398770818327106, 51.176036955406239 ], [ 4.39786884437576, 51.175616816344586 ], [ 4.396905716312433, 51.175254265951637 ], [ 4.3958907072382, 51.174952794432052 ], [ 4.394833589086467, 51.174715303934946 ], [ 4.393744538635284, 51.174544080650179 ], [ 4.392634039647215, 51.174440772828653 ], [ 4.391512782073555, 51.174406374936368 ], [ 4.390391559287131, 51.174441218094302 ], [ 4.389281164326374, 51.174544966895262 ], [ 4.388192286142592, 51.174716622628331 ], [ 4.387135406842313, 51.174954532879674 ], [ 4.386120700907351, 51.175256407418438 ], [ 4.385157937356633, 51.175619340215505 ], [ 4.384504284138762, 51.175924215324038 ], [ 4.384372982119859, 51.175920178871117 ], [ 4.383909920117045, 51.175934541766054 ], [ 4.383530611919892, 51.175922878860298 ], [ 4.382409346750897, 51.175957646229328 ], [ 4.381686832006849, 51.176025102880445 ], [ 4.381027226423361, 51.175921324315667 ], [ 4.37991672283157, 51.17581789698832 ], [ 4.379427128465873, 51.175802826163171 ], [ 4.379162709771606, 51.175139692059581 ], [ 4.379058821196212, 51.174957263076955 ], [ 4.379028255017999, 51.174880604312953 ], [ 4.378649910691052, 51.174216214423794 ], [ 4.378169804701484, 51.173578333397501 ], [ 4.377592563886669, 51.172973103189605 ], [ 4.377319022458438, 51.172741306755128 ], [ 4.377239692624501, 51.172405399702974 ], [ 4.376966806173325, 51.171720892834358 ], [ 4.376588516798356, 51.171056495550282 ], [ 4.376108471476851, 51.170418605385194 ], [ 4.375670796049336, 51.169959649053183 ], [ 4.375653134497717, 51.169884849042241 ], [ 4.375380286046295, 51.169200337858257 ], [ 4.375002039677763, 51.16853593486244 ], [ 4.374522041954926, 51.167898037644406 ], [ 4.374478349104662, 51.167852216080043 ], [ 4.374240684227062, 51.167536361211276 ], [ 4.373663569063365, 51.166931110425452 ], [ 4.373325848797862, 51.16664485967074 ], [ 4.373280895158138, 51.166565886804769 ], [ 4.372800941209344, 51.165927982119726 ], [ 4.372223864594474, 51.16532272393308 ], [ 4.371555225219899, 51.164755939857542 ], [ 4.370801463890802, 51.164233086863995 ], [ 4.369969840227371, 51.163759198784199 ], [ 4.369068362732065, 51.163338837891224 ], [ 4.368105711682167, 51.162976051020664 ] ], [ [ 4.438796541010075, 51.222290897663648 ], [ 4.437893311789803, 51.221871071777095 ], [ 4.437824349246761, 51.221845170542601 ], [ 4.43787474454707, 51.221810188137901 ], [ 4.438546846809795, 51.221658724152284 ], [ 4.439182936343729, 51.221469335484933 ], [ 4.439267316270987, 51.221581091489924 ], [ 4.439845959191403, 51.222186008755635 ], [ 4.440477712285473, 51.222719828629863 ], [ 4.440122431956039, 51.223021253499851 ], [ 4.440074419668695, 51.223071665116244 ], [ 4.439629907776598, 51.222764290212545 ], [ 4.438796541010075, 51.222290897663648 ] ] ] } }
]
}
