{
"type": "FeatureCollection",
"name": "delijn_line_shapes",
"crs": { "type": "name", "properties": { "name": "urn:ogc:def:crs:OGC:1.3:CRS84" } },
"features": [
{ "type": "Feature", "properties": { "line": "1", "colour": "#8C2B87", "source": "osm-overpass", "length_km": 17.54 }, "geometry": { "type": "LineString", "coordinates": [ [ 4.391187995937633, 51.200463302425952 ], [ 4.391385595937614, 51.200738302425904 ], [ 4.391384695937628, 51.20087690242584 ], [ 4.389072995938494, 51.203718802424795 ], [ 4.389096595938526, 51.204088202424693 ], [ 4.388938895938595, 51.204352902424617 ], [ 4.38899449593859, 51.204460202424571 ], [ 4.406597095934854, 51.210206902424893 ], [ 4.407452495934708, 51.210834602424789 ], [ 4.407851095934652, 51.211228602424704 ], [ 4.408746095934503, 51.211898102424612 ], [ 4.409162095934421, 51.212116302424619 ], [ 4.41369799593365, 51.215435902424169 ], [ 4.415114195933529, 51.217625402423714 ], [ 4.415485495933542, 51.218618902423458 ], [ 4.415930395933501, 51.219289402423286 ], [ 4.416539395933516, 51.220850702422929 ], [ 4.416553595933545, 51.221183402422824 ], [ 4.413568595935121, 51.229250102420188 ], [ 4.413349095935216, 51.229617502420069 ], [ 4.412960095935428, 51.230744502419697 ], [ 4.413048295935426, 51.230935202419651 ], [ 4.413614895935345, 51.231487802419544 ], [ 4.41374439593532, 51.231581202419541 ], [ 4.414035895935258, 51.231676902419544 ], [ 4.419387995933943, 51.231689902420136 ], [ 4.420120195933745, 51.231529502420258 ], [ 4.420473695933666, 51.231612702420271 ], [ 4.420627495933646, 51.231781502420226 ], [ 4.420512795934268, 51.237477502418578 ], [ 4.420505895934688, 51.241498702417431 ], [ 4.420361795935107, 51.245162702416387 ], [ 4.420369495936569, 51.259229002412333 ], [ 4.420243395936685, 51.260038902412091 ], [ 4.420053695936789, 51.260599902411933 ], [ 4.419685295936957, 51.261345802411661 ], [ 4.419262495937121, 51.261913702411448 ], [ 4.419383995937113, 51.262115902411431 ], [ 4.420186895936955, 51.2625097024114 ], [ 4.420316095936935, 51.262618502411371 ], [ 4.420360795937007, 51.263426702411167 ], [ 4.42023909593705, 51.263544302411113 ], [ 4.420093695937089, 51.263587202411081 ], [ 4.418752295937431, 51.263696802410884 ], [ 4.418509995937488, 51.263655402410883 ], [ 4.418375895937507, 51.263536702410896 ], [ 4.41822219593747, 51.262806502411088 ], [ 4.418265095937447, 51.262702602411132 ], [ 4.419353995937075, 51.261689202411532 ], [ 4.419638095936969, 51.261332802411658 ], [ 4.420083895936759, 51.260366802412001 ], [ 4.420315895936594, 51.259338402412325 ], [ 4.420306695935117, 51.245162702416359 ], [ 4.420448395934701, 51.241500302417428 ], [ 4.420565095933661, 51.231785702420225 ], [ 4.420387395933687, 51.231620202420252 ], [ 4.420145695933744, 51.231570702420235 ], [ 4.419445795933931, 51.231726102420154 ], [ 4.414020895935267, 51.231717002419522 ], [ 4.41361589593535, 51.231550902419542 ], [ 4.412985695935443, 51.230935702419636 ], [ 4.41290859593544, 51.230748902419684 ], [ 4.416499695933557, 51.221178202422813 ], [ 4.416485995933527, 51.220857702422904 ], [ 4.415878095933517, 51.219298802423303 ], [ 4.415421495933558, 51.218602902423449 ], [ 4.415062995933543, 51.217637002423686 ], [ 4.413798095933648, 51.215661202424108 ], [ 4.409106895934436, 51.212127702424588 ], [ 4.408697295934516, 51.211919102424602 ], [ 4.407841795934662, 51.211280602424722 ], [ 4.407440595934719, 51.2108896024248 ], [ 4.406508095934876, 51.210207802424868 ], [ 4.389087495938577, 51.204550202424542 ], [ 4.388803795938646, 51.204541102424557 ], [ 4.388526395938737, 51.204755602424434 ], [ 4.388241895938813, 51.20483280242437 ], [ 4.38806159593886, 51.20483510242434 ], [ 4.387920395938888, 51.204774402424384 ], [ 4.38788369593888, 51.20459230242443 ], [ 4.388521995938627, 51.203693102424758 ], [ 4.388673595938579, 51.203595902424787 ], [ 4.389092695938469, 51.20350840242488 ], [ 4.389271195938413, 51.203417202424895 ], [ 4.391320295937651, 51.200912702425853 ], [ 4.391321495937627, 51.200708402425903 ], [ 4.390737895937701, 51.200007702426056 ] ] } },
{ "type": "Feature", "properties": { "line": "2", "colour": "#008000", "source": "osm-overpass", "length_km": 24.93 }, "geometry": { "type": "MultiLineString", "coordinates": [ [ [ 4.462791395926037, 51.258544802417241 ], [ 4.462448695926073, 51.258049302417362 ], [ 4.459281695926486, 51.254535002417967 ], [ 4.453225795927305, 51.248024902419182 ], [ 4.444473095929045, 51.244037702419355 ], [ 4.441553095929637, 51.242785002419431 ], [ 4.440674595929803, 51.242309202419428 ], [ 4.439764295929963, 51.241695602419512 ], [ 4.438064395930226, 51.240202302419753 ], [ 4.438018095930221, 51.240059402419803 ], [ 4.438108895930183, 51.239912402419826 ], [ 4.43924869592984, 51.23930000242013 ], [ 4.440730195929342, 51.238029002420653 ], [ 4.44155989592902, 51.236910802421072 ], [ 4.442551495928662, 51.2358135024215 ], [ 4.442800795928553, 51.23535560242167 ], [ 4.443132895928375, 51.234437002421963 ], [ 4.442681295928106, 51.230771702422985 ], [ 4.442466895928075, 51.229971902423188 ], [ 4.442252995928074, 51.229489702423287 ], [ 4.442099495928089, 51.229233402423347 ], [ 4.441672495928149, 51.228810902423419 ], [ 4.441271095928219, 51.228522002423475 ], [ 4.438949595928665, 51.227326502423544 ], [ 4.437441195928978, 51.226760302423536 ], [ 4.431905095930088, 51.22430920242364 ], [ 4.427313095931099, 51.22316960242344 ], [ 4.422668495932189, 51.222624502423102 ], [ 4.422245995932285, 51.222546502423064 ], [ 4.421895995932362, 51.222447102423054 ], [ 4.421518295932435, 51.222248202423096 ], [ 4.421192195932488, 51.222006302423104 ], [ 4.420968995932514, 51.221683802423179 ], [ 4.420883195932492, 51.221312902423286 ], [ 4.420645395932208, 51.218022602424206 ], [ 4.420472495932106, 51.216643202424564 ], [ 4.420441595931945, 51.215022802425032 ], [ 4.420980695931584, 51.212813302425715 ], [ 4.421977995931116, 51.210706002426441 ], [ 4.422722295930808, 51.209494602426879 ], [ 4.422748495930772, 51.209234402426937 ], [ 4.422688395930771, 51.20907310242697 ], [ 4.422534395930794, 51.208923302427017 ], [ 4.420765295931103, 51.207716402427153 ], [ 4.412576395932517, 51.201932202427898 ], [ 4.412513295932519, 51.201811202427926 ], [ 4.412542195932501, 51.201688202427988 ], [ 4.413057095932311, 51.201092702428227 ], [ 4.413064495932296, 51.200957502428246 ], [ 4.412891595932324, 51.200825302428264 ], [ 4.412386995932427, 51.200604802428273 ], [ 4.411997395932489, 51.200294602428329 ], [ 4.411858495932501, 51.200057902428355 ], [ 4.411429395932489, 51.198942802428625 ], [ 4.411213595932511, 51.198652902428684 ], [ 4.410939395932556, 51.198412602428732 ], [ 4.410498995932628, 51.198085202428807 ], [ 4.410271795932677, 51.197996002428795 ], [ 4.408167895933167, 51.197733302428638 ], [ 4.407695195933273, 51.197626602428606 ], [ 4.406722695933471, 51.197248002428601 ], [ 4.405955295933611, 51.196772102428653 ], [ 4.402476295934216, 51.194348102428968 ], [ 4.399910495934652, 51.192491902429225 ], [ 4.399281595934774, 51.192144602429245 ], [ 4.398881595934832, 51.191759702429309 ], [ 4.395586195935394, 51.189355802429638 ], [ 4.39478009593552, 51.188681902429721 ], [ 4.393694395935681, 51.187652102429922 ], [ 4.392512395935829, 51.186289602430186 ], [ 4.391608195935921, 51.185037602430427 ], [ 4.391349295935965, 51.184849402430451 ], [ 4.3874307959368, 51.183601502430406 ], [ 4.386336495937042, 51.183337302430353 ], [ 4.385381495937262, 51.1831790024303 ], [ 4.374426095939929, 51.182898402429167 ], [ 4.373408195940171, 51.18281770242907 ], [ 4.372557995940361, 51.182624402429042 ], [ 4.366993395941532, 51.180710602428952 ], [ 4.366740895941594, 51.180709302428937 ], [ 4.366390995941699, 51.180902402428828 ] ], [ [ 4.373281895940197, 51.18276480242907 ], [ 4.374233995939974, 51.182863302429134 ], [ 4.38538469593726, 51.1831571024303 ], [ 4.38633959593704, 51.183314702430344 ], [ 4.387438195936797, 51.183578902430405 ], [ 4.391411295935949, 51.184842602430471 ], [ 4.391614895935914, 51.184980702430444 ], [ 4.392570295935815, 51.186293202430186 ], [ 4.393738195935668, 51.187639302429929 ], [ 4.394836895935507, 51.188674302429746 ], [ 4.395821495935349, 51.18949290242962 ], [ 4.398477795934897, 51.191421502429357 ], [ 4.398994195934799, 51.191715702429349 ], [ 4.399648695934687, 51.192179902429281 ], [ 4.400067895934622, 51.192562802429208 ], [ 4.402443795934219, 51.194290902428982 ], [ 4.405983095933602, 51.196756302428668 ], [ 4.406734095933467, 51.197224502428632 ], [ 4.407693895933268, 51.197599902428628 ], [ 4.408208195933156, 51.197715702428638 ], [ 4.410300795932666, 51.197975302428802 ], [ 4.410521595932622, 51.198064402428805 ], [ 4.411054195932531, 51.198462102428728 ], [ 4.41145149593248, 51.198899402428673 ], [ 4.41184949593249, 51.199950802428383 ], [ 4.412086895932472, 51.200319602428323 ], [ 4.412416695932418, 51.200574902428293 ], [ 4.413101295932281, 51.200879002428266 ], [ 4.413202295932266, 51.200971202428271 ], [ 4.413169595932289, 51.201133102428223 ], [ 4.412656495932477, 51.201732702428004 ], [ 4.412648095932497, 51.201880602427956 ], [ 4.412729795932488, 51.201999702427941 ], [ 4.422562695930786, 51.208909402427011 ], [ 4.422721895930762, 51.209064202427001 ], [ 4.422784595930763, 51.20923250242695 ], [ 4.422767895930797, 51.209507902426878 ], [ 4.42206249593109, 51.210638202426452 ], [ 4.42102979593157, 51.212820202425732 ], [ 4.420491595931933, 51.215026002425049 ], [ 4.420522795932095, 51.216645402424575 ], [ 4.420667195932202, 51.218020802424185 ], [ 4.420911795932486, 51.221311202423301 ], [ 4.420996795932503, 51.221678902423172 ], [ 4.421216795932481, 51.221996702423112 ], [ 4.421911395932355, 51.222431802423081 ], [ 4.42225599593228, 51.222529602423073 ], [ 4.427320795931101, 51.223152302423465 ], [ 4.431919095930082, 51.22429350242362 ], [ 4.437456895928973, 51.226745302423559 ], [ 4.438967395928661, 51.22730960242356 ], [ 4.44056539592835, 51.228109402423499 ], [ 4.441286395928213, 51.22851250242347 ], [ 4.441689795928141, 51.228802802423424 ], [ 4.442120295928082, 51.229219002423349 ], [ 4.442273395928073, 51.2294854024233 ], [ 4.442487995928069, 51.229969102423176 ], [ 4.442702595928099, 51.230769902422963 ], [ 4.443177595928334, 51.234130802422051 ], [ 4.443170395928366, 51.234437102421978 ], [ 4.443027895928451, 51.234903002421845 ], [ 4.44260389592865, 51.235824302421513 ], [ 4.441596195929014, 51.236921202421094 ], [ 4.440735395929347, 51.238081002420635 ], [ 4.439275395929835, 51.239315202420144 ], [ 4.438184095930167, 51.239901902419867 ], [ 4.438090495930203, 51.240021902419812 ], [ 4.438112995930212, 51.24018610241977 ], [ 4.439802595929951, 51.241675402419517 ], [ 4.440709295929791, 51.242286202419457 ], [ 4.441582895929627, 51.242759902419436 ], [ 4.444553695929028, 51.24403290241937 ], [ 4.453238195927296, 51.247983202419206 ], [ 4.459329695926475, 51.254525002417999 ], [ 4.462534295926056, 51.258100502417335 ], [ 4.463550395925904, 51.259040902417183 ] ] ] } },
{ "type": "Feature", "properties": { "line": "4", "colour": "#80A0FF", "source": "osm-overpass", "length_km": 17.56 }, "geometry": { "type": "LineString", "coordinates": [ [ 4.372472595940415, 51.182916902428929 ], [ 4.372451995940402, 51.182748302428998 ], [ 4.372537695940371, 51.182680302429013 ], [ 4.372703095940325, 51.182647302429025 ], [ 4.373614095940122, 51.18282370242909 ], [ 4.373789995940089, 51.182927102429083 ], [ 4.373811395940104, 51.183097802429025 ], [ 4.373393295940289, 51.183911102428759 ], [ 4.373387295940312, 51.184077702428709 ], [ 4.375931895940031, 51.187423202428036 ], [ 4.37660349593998, 51.188522802427784 ], [ 4.38004509593947, 51.191756402427231 ], [ 4.382444295939145, 51.194292802426766 ], [ 4.382624695939112, 51.194404702426759 ], [ 4.382932495939046, 51.194498302426766 ], [ 4.384240595938732, 51.194587602426878 ], [ 4.385045995938546, 51.194692502426953 ], [ 4.385956395938342, 51.194879202426989 ], [ 4.386699995938183, 51.195106002427011 ], [ 4.387471095938025, 51.195441602426989 ], [ 4.388108895937908, 51.195825502426956 ], [ 4.388616095937829, 51.196234402426882 ], [ 4.389064495937768, 51.196736202426798 ], [ 4.38945889593773, 51.197300702426688 ], [ 4.390105895937691, 51.198448402426422 ], [ 4.390679195937596, 51.198892202426372 ], [ 4.390928895937565, 51.199196502426304 ], [ 4.391181095937633, 51.200444802425956 ], [ 4.391400295937621, 51.200808002425902 ], [ 4.391323295937652, 51.200964902425852 ], [ 4.389072995938494, 51.203718802424795 ], [ 4.389090495938531, 51.204109402424699 ], [ 4.388536795938738, 51.204803702424428 ], [ 4.388539895938755, 51.204971202424396 ], [ 4.390609495938422, 51.206660202424111 ], [ 4.390790595938386, 51.206738102424126 ], [ 4.391276595938278, 51.20682680242416 ], [ 4.39141399593825, 51.206907002424146 ], [ 4.391488495938249, 51.20704130242413 ], [ 4.391496595938276, 51.207337402424017 ], [ 4.391571795938267, 51.207444202424 ], [ 4.397122095937374, 51.211976002423334 ], [ 4.399481395937287, 51.216720702422222 ], [ 4.400873995937131, 51.218499102421852 ], [ 4.401063395937094, 51.218612502421848 ], [ 4.401236695937054, 51.218618202421887 ], [ 4.40212989593681, 51.218402102422033 ], [ 4.40305839593657, 51.218310302422168 ], [ 4.403855295936379, 51.218358302422239 ], [ 4.404437495936254, 51.218523502422265 ], [ 4.405002895936103, 51.218419302422348 ], [ 4.405303295936016, 51.218291602422411 ], [ 4.405383895935983, 51.218160702422452 ], [ 4.405370495935921, 51.217538802422631 ], [ 4.405511095935828, 51.216968102422825 ], [ 4.405504995935787, 51.216581102422921 ], [ 4.405378695935802, 51.216410002422954 ], [ 4.404956595935889, 51.216243302422974 ], [ 4.4048432959359, 51.21609500242301 ], [ 4.405172395935704, 51.214982202423364 ], [ 4.405026095935544, 51.21310890242389 ], [ 4.405067595935519, 51.212975702423911 ], [ 4.405302995935453, 51.212874802423975 ], [ 4.406628395935098, 51.212611602424175 ], [ 4.407098095934964, 51.212463902424282 ], [ 4.40876169593452, 51.212091802424574 ], [ 4.408856495934483, 51.21198200242462 ], [ 4.408838695934475, 51.211844402424667 ], [ 4.408195695934579, 51.21133550242471 ], [ 4.408157895934577, 51.211244202424744 ], [ 4.408211995934554, 51.211136802424775 ], [ 4.40961049593413, 51.210369502425159 ], [ 4.410486695933814, 51.209417502425538 ], [ 4.410708495933743, 51.209257502425615 ], [ 4.414685995932524, 51.206971202426686 ], [ 4.416846395931914, 51.206213302427152 ], [ 4.421295095930612, 51.204261802428185 ], [ 4.424723995929738, 51.203971302428698 ], [ 4.426092295929381, 51.203775402428882 ], [ 4.42697199592914, 51.203576802429041 ], [ 4.428296495928759, 51.203035302429356 ], [ 4.428548995928678, 51.202876002429413 ], [ 4.428878695928558, 51.202502602429547 ], [ 4.429153095928476, 51.202362602429631 ], [ 4.432727395927543, 51.201865602430175 ], [ 4.434656395927021, 51.201424102430508 ], [ 4.438265995926018, 51.200335802431219 ], [ 4.43849339592596, 51.200317002431248 ], [ 4.438664995925923, 51.200361402431234 ], [ 4.438760595925911, 51.200463502431241 ], [ 4.438732195925929, 51.200587202431194 ], [ 4.438580295925976, 51.200672702431135 ], [ 4.438387895926025, 51.200677802431137 ], [ 4.438067095926083, 51.200495102431141 ], [ 4.437809595926148, 51.200481902431129 ], [ 4.434756795926999, 51.201429502430528 ], [ 4.432737295927543, 51.20188930243016 ], [ 4.429236995928457, 51.202372802429629 ], [ 4.428899095928557, 51.202531502429551 ], [ 4.428570195928678, 51.202904302429403 ], [ 4.428365095928742, 51.203036502429342 ], [ 4.427078395929114, 51.203566802429044 ], [ 4.426101995929378, 51.203796702428868 ], [ 4.424729895929736, 51.203993202428649 ], [ 4.421315495930609, 51.204282902428204 ], [ 4.416780995931935, 51.206268702427131 ], [ 4.414705195932521, 51.206991102426706 ], [ 4.410735095933738, 51.209273002425604 ], [ 4.410522795933807, 51.20942580242555 ], [ 4.409669795934112, 51.21036350242516 ], [ 4.408284395934538, 51.211125402424813 ], [ 4.408225695934559, 51.21122000242476 ], [ 4.40826449593456, 51.211330602424752 ], [ 4.408940895934452, 51.211881902424672 ], [ 4.408941095934464, 51.211997602424603 ], [ 4.408850795934496, 51.212097802424566 ], [ 4.407127095934961, 51.212487502424281 ], [ 4.406707595935078, 51.212620102424196 ], [ 4.405263395935467, 51.212911302423947 ], [ 4.405112095935512, 51.212987502423914 ], [ 4.405066595935534, 51.213113902423871 ], [ 4.405210095935694, 51.214982502423332 ], [ 4.404888295935888, 51.216096102423002 ], [ 4.404967695935882, 51.216210902422965 ], [ 4.405412395935792, 51.21638890242297 ], [ 4.40554709593578, 51.216592402422933 ], [ 4.405551995935819, 51.216976902422843 ], [ 4.40540599593592, 51.217591102422645 ], [ 4.405426995935973, 51.218165002422467 ], [ 4.405338295936011, 51.218315002422408 ], [ 4.405076795936087, 51.218433502422336 ], [ 4.404448895936255, 51.218552302422268 ], [ 4.403846795936384, 51.218378302422224 ], [ 4.403064795936571, 51.218334302422164 ], [ 4.40221519593679, 51.218416702422047 ], [ 4.401248695937054, 51.218655002421862 ], [ 4.401033395937105, 51.218650202421834 ], [ 4.400874595937133, 51.218549902421849 ], [ 4.399419095937299, 51.216693602422218 ], [ 4.397091995937385, 51.212001102423329 ], [ 4.391500095938285, 51.207448302424027 ], [ 4.390736395938452, 51.207238202423973 ], [ 4.390639695938462, 51.207103302423995 ], [ 4.390563195938435, 51.206674502424114 ], [ 4.388672095938741, 51.205139502424331 ], [ 4.38846279593878, 51.20502950242436 ], [ 4.387971495938888, 51.20488520242435 ], [ 4.387816095938912, 51.204760202424374 ], [ 4.387826795938889, 51.204546502424428 ], [ 4.388521995938627, 51.203693102424758 ], [ 4.388673595938579, 51.203595902424787 ], [ 4.389092695938469, 51.20350840242488 ], [ 4.389271195938413, 51.203417202424895 ], [ 4.391350595937632, 51.200823502425891 ], [ 4.391321495937627, 51.200708402425903 ], [ 4.390492495937727, 51.199700102426114 ], [ 4.390210495937698, 51.198750402426349 ], [ 4.389422695937741, 51.197311202426675 ], [ 4.388961895937785, 51.196660202426827 ], [ 4.388496995937851, 51.1961685024269 ], [ 4.387957395937942, 51.195756002426961 ], [ 4.387418995938041, 51.195447702427003 ], [ 4.386684395938187, 51.195129602427002 ], [ 4.385944395938346, 51.194903302426972 ], [ 4.385040595938549, 51.194717202426943 ], [ 4.382835895939071, 51.194507702426755 ], [ 4.382576895939124, 51.194420602426753 ], [ 4.382385695939159, 51.194297902426769 ], [ 4.379932695939493, 51.191706302427235 ], [ 4.37761979593983, 51.189493002427604 ], [ 4.376659595939983, 51.188666502427743 ], [ 4.375840795940048, 51.187382802428026 ], [ 4.372472595940415, 51.182916902428929 ] ] } },
{ "type": "Feature", "properties": { "line": "6", "colour": "#FF00FF", "source": "osm-overpass", "length_km": 24.51 }, "geometry": { "type": "LineString", "coordinates": [ [ 4.390820695936037, 51.18428670243059 ], [ 4.391440895935866, 51.184091402430717 ], [ 4.392430895935599, 51.183891502430853 ], [ 4.392657695935527, 51.183728102430955 ], [ 4.392672495935509, 51.183608802430989 ], [ 4.392597095935519, 51.183490702430987 ], [ 4.391181495935768, 51.18258140243109 ], [ 4.390876495935804, 51.182187402431168 ], [ 4.39084869593579, 51.181975602431251 ], [ 4.390963195935745, 51.181825702431283 ], [ 4.391663495935545, 51.181542402431461 ], [ 4.39187159593549, 51.181528802431487 ], [ 4.392087695935445, 51.181609302431468 ], [ 4.393792795935182, 51.183106402431235 ], [ 4.393842395935184, 51.183240302431194 ], [ 4.393767995935236, 51.183576702431111 ], [ 4.39367839593527, 51.183681802431082 ], [ 4.393501395935321, 51.183755702431021 ], [ 4.390922495936011, 51.18428460243058 ], [ 4.39077059593606, 51.184386102430537 ], [ 4.390742295936081, 51.184522102430485 ], [ 4.390874095936064, 51.184659102430466 ], [ 4.391411295935949, 51.184842602430471 ], [ 4.391614895935914, 51.184980702430444 ], [ 4.392338995935841, 51.185998002430239 ], [ 4.393133095935747, 51.18696470243006 ], [ 4.393982095935634, 51.187887702429869 ], [ 4.394836895935507, 51.188674302429746 ], [ 4.39628199593527, 51.189844502429587 ], [ 4.398542695934884, 51.191466802429346 ], [ 4.398994195934799, 51.191715702429349 ], [ 4.399648695934687, 51.192179902429281 ], [ 4.400067895934622, 51.192562802429208 ], [ 4.402443795934219, 51.194290902428982 ], [ 4.406500095933507, 51.197090302428613 ], [ 4.406878095933438, 51.197288702428644 ], [ 4.407836295933239, 51.197642602428616 ], [ 4.410250795932676, 51.197963502428799 ], [ 4.41046169593263, 51.198030802428818 ], [ 4.410685095932594, 51.198181702428798 ], [ 4.411379995932487, 51.198787402428692 ], [ 4.411684095932477, 51.199418902428548 ], [ 4.41184949593249, 51.199950802428383 ], [ 4.412086895932472, 51.200319602428323 ], [ 4.412416695932418, 51.200574902428293 ], [ 4.413101295932281, 51.200879002428266 ], [ 4.413202295932266, 51.200971202428271 ], [ 4.413169595932289, 51.201133102428223 ], [ 4.412656495932477, 51.201732702428004 ], [ 4.412648095932497, 51.201880602427956 ], [ 4.412729795932488, 51.201999702427941 ], [ 4.422562695930786, 51.208909402427011 ], [ 4.422721895930762, 51.209064202427001 ], [ 4.422784595930763, 51.20923250242695 ], [ 4.422767895930797, 51.209507902426878 ], [ 4.42206249593109, 51.210638202426452 ], [ 4.42102979593157, 51.212820202425732 ], [ 4.420491595931933, 51.215026002425049 ], [ 4.420522795932095, 51.216645402424575 ], [ 4.420667195932202, 51.218020802424185 ], [ 4.420911795932486, 51.221311202423301 ], [ 4.420996795932503, 51.221678902423172 ], [ 4.421216795932481, 51.221996702423112 ], [ 4.421911395932355, 51.222431802423081 ], [ 4.42225599593228, 51.222529602423073 ], [ 4.427320795931101, 51.223152302423465 ], [ 4.428010095930942, 51.223303302423496 ], [ 4.431919095930082, 51.22429350242362 ], [ 4.437456895928973, 51.226745302423559 ], [ 4.438967395928661, 51.22730960242356 ], [ 4.44056539592835, 51.228109402423499 ], [ 4.441286395928213, 51.22851250242347 ], [ 4.441689795928141, 51.228802802423424 ], [ 4.441891995928114, 51.228995802423391 ], [ 4.442120295928082, 51.229219002423349 ], [ 4.442273395928073, 51.2294854024233 ], [ 4.442487995928069, 51.229969102423176 ], [ 4.442702595928099, 51.230769902422963 ], [ 4.443177595928334, 51.234130802422051 ], [ 4.443170395928366, 51.234437102421978 ], [ 4.443027895928451, 51.234903002421845 ], [ 4.44260389592865, 51.235824302421513 ], [ 4.441596195929014, 51.236921202421094 ], [ 4.440793595929327, 51.238017302420687 ], [ 4.439214495929855, 51.239356702420096 ], [ 4.438390895930105, 51.239803602419897 ], [ 4.436776295930567, 51.240411002419549 ], [ 4.436179395930746, 51.240749202419394 ], [ 4.428464595932997, 51.244080002417597 ], [ 4.42785069593317, 51.244302402417446 ], [ 4.426524795933525, 51.244564802417216 ], [ 4.425475195933796, 51.244682802417088 ], [ 4.424192895934117, 51.244737502416918 ], [ 4.420765295934962, 51.244721302416551 ], [ 4.420549895935016, 51.244762802416496 ], [ 4.420403095935064, 51.244871202416455 ], [ 4.420364295936582, 51.259339602412318 ], [ 4.420243395936685, 51.260038902412091 ], [ 4.420053695936789, 51.260599902411933 ], [ 4.419685295936957, 51.261345802411661 ], [ 4.419262495937121, 51.261913702411448 ], [ 4.419383995937113, 51.262115902411431 ], [ 4.420186895936955, 51.2625097024114 ], [ 4.420316095936935, 51.262618502411371 ], [ 4.420360795937007, 51.263426702411167 ], [ 4.42023909593705, 51.263544302411113 ], [ 4.420093695937089, 51.263587202411081 ], [ 4.418876995937401, 51.263689502410912 ], [ 4.418587295937465, 51.263624502410885 ], [ 4.418445995937486, 51.263489402410933 ], [ 4.418294395937446, 51.262748902411104 ], [ 4.418353295937418, 51.262628602411176 ], [ 4.418931695937222, 51.262123102411358 ], [ 4.419638095936969, 51.261332802411658 ], [ 4.420083895936759, 51.260366802412001 ], [ 4.420305195936607, 51.259458402412285 ], [ 4.420306695935117, 51.245162702416359 ], [ 4.420364595935065, 51.244781102416496 ], [ 4.420471495935032, 51.244710502416517 ], [ 4.420635895934991, 51.244684402416517 ], [ 4.424194395934115, 51.244705102416937 ], [ 4.425361095933822, 51.244660502417062 ], [ 4.426520395933521, 51.244534102417241 ], [ 4.427814995933179, 51.244278202417455 ], [ 4.428308495933038, 51.244107002417557 ], [ 4.436155995930751, 51.240730902419386 ], [ 4.437023795930491, 51.240273102419629 ], [ 4.438276195930136, 51.239824102419881 ], [ 4.439197195929855, 51.239336202420134 ], [ 4.440627995929378, 51.238135502420647 ], [ 4.440867195929292, 51.237871002420711 ], [ 4.44155989592902, 51.236910802421072 ], [ 4.442551495928662, 51.2358135024215 ], [ 4.44298369592846, 51.234894202421813 ], [ 4.443132895928375, 51.234437002421963 ], [ 4.443128795928345, 51.234134102422061 ], [ 4.442681295928106, 51.230771702422985 ], [ 4.442466895928075, 51.229971902423188 ], [ 4.442099495928089, 51.229233402423347 ], [ 4.441672495928149, 51.228810902423419 ], [ 4.441271095928219, 51.228522002423475 ], [ 4.440544495928356, 51.228127702423478 ], [ 4.438949595928665, 51.227326502423544 ], [ 4.437441195928978, 51.226760302423536 ], [ 4.431905095930088, 51.22430920242364 ], [ 4.427313095931099, 51.22316960242344 ], [ 4.422245995932285, 51.222546502423064 ], [ 4.421895995932362, 51.222447102423054 ], [ 4.421192195932488, 51.222006302423104 ], [ 4.420968995932514, 51.221683802423179 ], [ 4.420883195932492, 51.221312902423286 ], [ 4.420645395932208, 51.218022602424206 ], [ 4.420472495932106, 51.216643202424564 ], [ 4.420441595931945, 51.215022802425032 ], [ 4.420980695931584, 51.212813302425715 ], [ 4.421977995931116, 51.210706002426441 ], [ 4.422722295930808, 51.209494602426879 ], [ 4.422748495930772, 51.209234402426937 ], [ 4.422688395930771, 51.20907310242697 ], [ 4.422534395930794, 51.208923302427017 ], [ 4.412576395932517, 51.201932202427898 ], [ 4.412513295932519, 51.201811202427926 ], [ 4.412542195932501, 51.201688202427988 ], [ 4.413057095932311, 51.201092702428227 ], [ 4.413064495932296, 51.200957502428246 ], [ 4.412891595932324, 51.200825302428264 ], [ 4.412386995932427, 51.200604802428273 ], [ 4.411997395932489, 51.200294602428329 ], [ 4.411858495932501, 51.200057902428355 ], [ 4.411429395932489, 51.198942802428625 ], [ 4.411213595932511, 51.198652902428684 ], [ 4.410939395932556, 51.198412602428732 ], [ 4.41033149593266, 51.198012202428799 ], [ 4.407877095933232, 51.197678702428611 ], [ 4.406637695933488, 51.197203502428607 ], [ 4.402476295934216, 51.194348102428968 ], [ 4.399910495934652, 51.192491902429225 ], [ 4.399281595934774, 51.192144602429245 ], [ 4.398881595934832, 51.191759702429309 ], [ 4.395957395935331, 51.189652402429573 ], [ 4.394551795935555, 51.188474902429782 ], [ 4.393933495935648, 51.187900402429861 ], [ 4.39300749593577, 51.186887402430074 ], [ 4.39155059593593, 51.18497490243044 ], [ 4.391349295935965, 51.184849402430451 ], [ 4.390696095936105, 51.184608202430482 ], [ 4.39065549593609, 51.184407502430524 ], [ 4.390820695936037, 51.18428670243059 ] ] } },
{ "type": "Feature", "properties": { "line": "7", "colour": "#0000A0", "source": "osm-overpass", "length_km": 16.64 }, "geometry": { "type": "MultiLineString", "coordinates": [ [ [ 4.401934595938018, 51.229534002418823 ], [ 4.402745195937982, 51.231097202418475 ], [ 4.403008395937928, 51.231199902418453 ], [ 4.403630395937771, 51.231177902418537 ], [ 4.403756495937732, 51.231110502418588 ], [ 4.403826795937705, 51.230991902418602 ], [ 4.403884395937578, 51.229928702418938 ], [ 4.403828095937577, 51.22979080241894 ], [ 4.403588995937624, 51.229679102418963 ], [ 4.402175995937969, 51.229640902418801 ], [ 4.401934595938018, 51.229534002418823 ] ], [ [ 4.401934595938018, 51.229534002418823 ], [ 4.401882995938019, 51.229412402418866 ], [ 4.401910395937906, 51.228404702419141 ], [ 4.401807995937894, 51.228030502419223 ], [ 4.401606695937912, 51.227731102419284 ], [ 4.400397495938079, 51.226482102419517 ], [ 4.40036359593807, 51.226332302419586 ], [ 4.40044499593804, 51.226205202419607 ], [ 4.40075759593794, 51.22600620241969 ], [ 4.401602395937637, 51.225087002420047 ], [ 4.404256595936719, 51.222562802421066 ], [ 4.405025995936446, 51.221760102421378 ], [ 4.405057695936402, 51.221415302421491 ], [ 4.405224295936328, 51.221090502421617 ], [ 4.405281295936198, 51.219978502421938 ], [ 4.405075795936096, 51.218509702422317 ], [ 4.405375695935988, 51.218196602422438 ], [ 4.405371095935921, 51.217532002422637 ], [ 4.405520395935813, 51.216851102422844 ], [ 4.40545089593579, 51.216471802422937 ], [ 4.40528239593582, 51.216355802422953 ], [ 4.404956595935889, 51.216243302422974 ], [ 4.404845595935903, 51.216122202422994 ], [ 4.405172395935704, 51.214982202423364 ], [ 4.405033995935532, 51.213032102423874 ], [ 4.405225795935473, 51.212894002423951 ], [ 4.408590795934566, 51.212152702424547 ], [ 4.408822895934497, 51.212040802424575 ], [ 4.40886489593448, 51.211933402424656 ], [ 4.408817395934478, 51.211820802424668 ], [ 4.407873695934635, 51.211109102424764 ], [ 4.407781595934645, 51.210967002424795 ], [ 4.408006595934439, 51.209580302425195 ], [ 4.408409895934269, 51.208889302425447 ], [ 4.408791595934133, 51.208463902425635 ], [ 4.40977229593372, 51.206828202426202 ], [ 4.409936695933641, 51.206457902426315 ], [ 4.410084295933516, 51.205615102426592 ], [ 4.412647395932476, 51.201667902428014 ], [ 4.414696795931729, 51.199388602428883 ], [ 4.415389195931507, 51.198908702429087 ], [ 4.415956895931321, 51.1984320024293 ], [ 4.417855095930635, 51.196361502430086 ], [ 4.420372695929765, 51.193960302431066 ], [ 4.421898995929253, 51.192662802431585 ], [ 4.422263195929122, 51.19227020243175 ], [ 4.42465319592831, 51.190132602432641 ], [ 4.427385695927404, 51.187916802433577 ], [ 4.43009329592647, 51.185346002434613 ], [ 4.430411195926341, 51.184874502434788 ], [ 4.43093579592605, 51.183339402435294 ], [ 4.431855795925602, 51.181203202436002 ], [ 4.435864495924175, 51.17701180243764 ], [ 4.437170995923765, 51.176171702438054 ], [ 4.440037495922896, 51.174623602438778 ], [ 4.441178895922576, 51.174254302439032 ], [ 4.442316995922271, 51.174026002439213 ], [ 4.444084795921776, 51.173456502439592 ], [ 4.446817595920967, 51.172181102440256 ], [ 4.448165195920541, 51.171284902440675 ], [ 4.449145895920247, 51.170766902440917 ], [ 4.449772895920034, 51.170219502441157 ], [ 4.450027595919963, 51.170147602441183 ], [ 4.450280295919903, 51.170182502441214 ], [ 4.450440395919875, 51.170277402441222 ], [ 4.450550295919866, 51.170446602441181 ], [ 4.450521895919885, 51.170570102441111 ], [ 4.450377295919934, 51.170688102441083 ], [ 4.449038795920284, 51.170872902440884 ], [ 4.44820749592053, 51.171303502440651 ], [ 4.446758095920991, 51.172258302440227 ], [ 4.444033395921796, 51.173517902439556 ], [ 4.442340995922267, 51.174056102439216 ], [ 4.441200595922572, 51.174284902439034 ], [ 4.440146595922868, 51.174618202438815 ], [ 4.437424895923689, 51.176073802438097 ], [ 4.43589589592417, 51.177035702437649 ], [ 4.431908495925589, 51.181217302436018 ], [ 4.43097819592604, 51.183347902435301 ], [ 4.430459895926329, 51.184877402434779 ], [ 4.430134195926461, 51.185360802434623 ], [ 4.4274181959274, 51.18793800243359 ], [ 4.425017195928193, 51.189866102432745 ], [ 4.422292295929115, 51.192287802431743 ], [ 4.421883895929264, 51.192719102431582 ], [ 4.420477895929734, 51.193911702431095 ], [ 4.419297195930146, 51.195089402430611 ], [ 4.417818595930655, 51.196449202430088 ], [ 4.416037895931297, 51.198410302429288 ], [ 4.415350495931526, 51.198977202429084 ], [ 4.414705595931732, 51.199432302428868 ], [ 4.412687095932464, 51.201679602427987 ], [ 4.410150195933499, 51.205603802426594 ], [ 4.40998249593363, 51.206462702426315 ], [ 4.409813495933712, 51.206835902426207 ], [ 4.408794395934139, 51.208527802425614 ], [ 4.408449195934261, 51.208906102425452 ], [ 4.408053795934433, 51.209586402425188 ], [ 4.407818195934627, 51.210921502424803 ], [ 4.407963195934615, 51.211120502424762 ], [ 4.408898795934456, 51.211821402424661 ], [ 4.408951995934454, 51.211923002424641 ], [ 4.408919995934473, 51.212034002424609 ], [ 4.408679495934546, 51.212164902424547 ], [ 4.405263395935467, 51.212911302423947 ], [ 4.405081495935521, 51.213041402423883 ], [ 4.405210095935694, 51.214982502423332 ], [ 4.404888295935888, 51.216096102423002 ], [ 4.404967695935882, 51.216210902422965 ], [ 4.405316095935808, 51.216336902422974 ], [ 4.405475595935783, 51.216445702422959 ], [ 4.405560095935804, 51.216854002422849 ], [ 4.405410695935911, 51.217539202422643 ], [ 4.405419995935979, 51.21820310242245 ], [ 4.405124995936085, 51.218510002422335 ], [ 4.405323195936184, 51.219955502421946 ], [ 4.405262095936318, 51.221096002421604 ], [ 4.405104195936391, 51.221431002421468 ], [ 4.405075295936435, 51.221770102421402 ], [ 4.401560995937656, 51.225174102420041 ], [ 4.400466095938056, 51.226422002419554 ], [ 4.400531495938055, 51.226577902419507 ], [ 4.4016440959379, 51.227718502419286 ], [ 4.401836295937881, 51.227990402419252 ], [ 4.401949695937895, 51.228372602419171 ], [ 4.401934595938018, 51.229534002418823 ] ] ] } },
{ "type": "Feature", "properties": { "line": "8", "colour": "#FF80C0", "source": "osm-overpass", "length_km": 11.74 }, "geometry": { "type": "LineString", "coordinates": [ [ 4.420339495932388, 51.219031702423841 ], [ 4.423497695931566, 51.218603702424339 ], [ 4.424408695931323, 51.218442402424479 ], [ 4.428529795930199, 51.217403302425254 ], [ 4.428979195930073, 51.217249602425333 ], [ 4.429333195929965, 51.217065902425446 ], [ 4.430437695929612, 51.216289002425775 ], [ 4.430869595929482, 51.216061002425889 ], [ 4.432109895929128, 51.215577902426155 ], [ 4.433405595928765, 51.215179802426405 ], [ 4.434726095928403, 51.214824202426641 ], [ 4.438607195927369, 51.214078202427281 ], [ 4.440106595926979, 51.213873402427531 ], [ 4.440840895926798, 51.213877202427611 ], [ 4.441624495926621, 51.214039602427647 ], [ 4.443332295926256, 51.214597202427683 ], [ 4.44370649592617, 51.214648002427694 ], [ 4.444565795925954, 51.214594702427824 ], [ 4.445720695925643, 51.214369102428009 ], [ 4.447136395925236, 51.213803802428338 ], [ 4.447562695925099, 51.213484902428483 ], [ 4.448281095924837, 51.212661102428783 ], [ 4.448736295924689, 51.212338802428924 ], [ 4.452433795923603, 51.210677202429828 ], [ 4.453109495923409, 51.210419902429976 ], [ 4.456468595922472, 51.20936590243064 ], [ 4.456964695922338, 51.209246302430721 ], [ 4.457787995922132, 51.209262802430821 ], [ 4.459837195921658, 51.209530702430982 ], [ 4.460321295921533, 51.209487102431041 ], [ 4.463357195920662, 51.208322102431701 ], [ 4.467307795919508, 51.206616002432625 ], [ 4.469303095918964, 51.206097202433028 ], [ 4.470852095918547, 51.205795602433255 ], [ 4.471049995918499, 51.205809602433249 ], [ 4.471188195918477, 51.2058997024333 ], [ 4.472781995918401, 51.208960002432576 ], [ 4.472941995918383, 51.209162302432524 ], [ 4.473340795918321, 51.209493402432457 ], [ 4.473723495918249, 51.209727002432466 ], [ 4.474281095918137, 51.209959802432451 ], [ 4.476784895917581, 51.210562402432593 ], [ 4.477712495917388, 51.210893602432556 ], [ 4.478627495917205, 51.21132020243256 ], [ 4.479053195917106, 51.211364202432577 ], [ 4.480901595916619, 51.211056802432878 ], [ 4.482199795916279, 51.210909402433032 ], [ 4.483288395916007, 51.210859802433191 ], [ 4.484427295915729, 51.210881202433328 ], [ 4.48761099591497, 51.211159302433593 ], [ 4.489041995914635, 51.211334102433703 ], [ 4.491620395914034, 51.211668902433878 ], [ 4.491790295913998, 51.21172520243389 ], [ 4.491879295913987, 51.211843002433866 ], [ 4.491772695914031, 51.212013202433788 ], [ 4.491525795914098, 51.21205970243377 ], [ 4.491315195914143, 51.211983902433758 ], [ 4.491158795914152, 51.211698102433822 ], [ 4.490975695914186, 51.211620002433818 ], [ 4.487603395914979, 51.211194202433568 ], [ 4.48442439591573, 51.210908302433303 ], [ 4.48328629591601, 51.210893102433175 ], [ 4.482203795916284, 51.210940902433038 ], [ 4.481068195916576, 51.211065702432897 ], [ 4.479070395917105, 51.211399102432587 ], [ 4.478658395917203, 51.211380502432512 ], [ 4.477673295917402, 51.210929602432536 ], [ 4.476738395917598, 51.21059610243254 ], [ 4.474246795918149, 51.209997402432428 ], [ 4.473669995918267, 51.20974730243244 ], [ 4.473290595918336, 51.209510602432466 ], [ 4.472959895918386, 51.209242502432495 ], [ 4.472735795918411, 51.208963002432547 ], [ 4.471177395918486, 51.205970502433267 ], [ 4.471050195918507, 51.205868702433257 ], [ 4.47082479591856, 51.205829302433258 ], [ 4.469571595918892, 51.206063702433056 ], [ 4.467988295919322, 51.206440702432758 ], [ 4.467329095919505, 51.206640102432615 ], [ 4.463528095920616, 51.208287502431752 ], [ 4.460306595921542, 51.209521702431047 ], [ 4.459803795921668, 51.209556102430952 ], [ 4.457781095922138, 51.209289402430784 ], [ 4.456972995922337, 51.209274802430734 ], [ 4.453014195923441, 51.210487302429932 ], [ 4.452166995923686, 51.210823902429745 ], [ 4.449065295924599, 51.212248302428996 ], [ 4.448476095924782, 51.212624002428853 ], [ 4.447736595925059, 51.213529002428487 ], [ 4.447335095925196, 51.213897202428306 ], [ 4.446432695925466, 51.214330202428101 ], [ 4.445451695925738, 51.214649102427913 ], [ 4.444611395925957, 51.214739902427787 ], [ 4.443634495926193, 51.214693202427682 ], [ 4.441636795926623, 51.214082102427653 ], [ 4.440822395926804, 51.213904302427615 ], [ 4.440489195926883, 51.213881102427564 ], [ 4.439193395927216, 51.214004802427397 ], [ 4.437506395927661, 51.214293502427118 ], [ 4.434817495928383, 51.214832602426661 ], [ 4.432868795928916, 51.215357602426323 ], [ 4.432190095929108, 51.21558560242616 ], [ 4.431048595929433, 51.216010702425933 ], [ 4.43036979592964, 51.216389502425741 ], [ 4.42981449592982, 51.216803102425551 ], [ 4.42908019593005, 51.21724370242535 ], [ 4.428426195930228, 51.217460102425207 ], [ 4.42443399593132, 51.218473402424479 ], [ 4.423499795931568, 51.218634802424326 ], [ 4.420349195932389, 51.219057002423867 ] ] } },
{ "type": "Feature", "properties": { "line": "10", "colour": "#ADFF2F", "source": "osm-overpass", "length_km": 28.62 }, "geometry": { "type": "MultiLineString", "coordinates": [ [ [ 4.363032595941321, 51.169336702431792 ], [ 4.36321579594129, 51.169490302431768 ], [ 4.363835295941224, 51.1703265024316 ], [ 4.365888295941059, 51.173578002430887 ], [ 4.366921795940996, 51.175418502430482 ], [ 4.375931895940031, 51.187423202428036 ], [ 4.37660349593998, 51.188522802427784 ], [ 4.38004509593947, 51.191756402427231 ], [ 4.38241369593915, 51.194266302426776 ], [ 4.382624695939112, 51.194404702426759 ], [ 4.382932495939046, 51.194498302426766 ], [ 4.384595595938648, 51.194626502426921 ], [ 4.38609699593831, 51.194915002426995 ], [ 4.386699995938183, 51.195106002427011 ], [ 4.387359395938049, 51.195387102426999 ], [ 4.388296695937876, 51.195960402426955 ], [ 4.388766795937805, 51.196389002426855 ], [ 4.389130995937764, 51.196824602426808 ], [ 4.390141695937688, 51.198492502426419 ], [ 4.390576595937612, 51.198801602426371 ], [ 4.390899795937566, 51.199149302426328 ], [ 4.391181095937633, 51.200444802425956 ], [ 4.391454595937605, 51.200814202425917 ], [ 4.396845395936873, 51.206548602424846 ], [ 4.397026095936874, 51.206938402424747 ], [ 4.397159495936853, 51.207087302424753 ], [ 4.397347495936819, 51.207185602424751 ], [ 4.40647129593488, 51.210150202424884 ], [ 4.406652295934844, 51.210240502424888 ], [ 4.407452495934708, 51.210834602424789 ], [ 4.407942095934636, 51.211300302424696 ], [ 4.408783395934497, 51.211923102424613 ], [ 4.409162095934421, 51.212116302424619 ], [ 4.414322695933549, 51.215971402424067 ], [ 4.414665295933511, 51.216374902424 ], [ 4.416187795933397, 51.218909602423459 ], [ 4.416461595933359, 51.219169302423381 ], [ 4.416820995933287, 51.219343102423373 ], [ 4.417162895933211, 51.21942490242342 ], [ 4.417649395933094, 51.219426102423448 ], [ 4.423877095931466, 51.218546502424395 ], [ 4.425092595931138, 51.218293302424605 ], [ 4.428529795930199, 51.217403302425254 ], [ 4.428979195930073, 51.217249602425333 ], [ 4.42973429592984, 51.216806902425546 ], [ 4.430437695929612, 51.216289002425775 ], [ 4.430869595929482, 51.216061002425889 ], [ 4.432109895929128, 51.215577902426155 ], [ 4.433405595928765, 51.215179802426405 ], [ 4.435275195928255, 51.214704402426747 ], [ 4.43905149592725, 51.213997002427384 ], [ 4.440106595926979, 51.213873402427531 ], [ 4.440675195926837, 51.213861902427595 ], [ 4.441624495926621, 51.214039602427647 ], [ 4.446135995925667, 51.215563302427718 ], [ 4.446396395925624, 51.215771702427681 ], [ 4.446705695925665, 51.21689780242739 ], [ 4.446872995925663, 51.2172586024273 ], [ 4.447178195925621, 51.217586902427271 ], [ 4.44755259592555, 51.217798702427224 ], [ 4.448589095925321, 51.218040502427257 ], [ 4.450598795924853, 51.21833410242742 ], [ 4.451586095924633, 51.218551902427478 ], [ 4.452337495924474, 51.218808102427452 ], [ 4.453983795924137, 51.219474202427477 ], [ 4.454911295923935, 51.21971010242752 ], [ 4.455922295923733, 51.220179302427461 ], [ 4.456510895923605, 51.220337002427506 ], [ 4.457342595923407, 51.220395302427562 ], [ 4.460545895922604, 51.220275802427963 ], [ 4.460807295922533, 51.220223502428013 ], [ 4.461555395922321, 51.219954902428157 ], [ 4.462300495922126, 51.219852602428283 ], [ 4.462800095922004, 51.21987430242833 ], [ 4.46408899592171, 51.220075602428416 ], [ 4.468709895920559, 51.219980402428966 ], [ 4.46939539592038, 51.219893102429062 ], [ 4.472186095919638, 51.21939120242952 ], [ 4.47491709591892, 51.218985402429908 ], [ 4.47650669591851, 51.218808302430141 ], [ 4.47716799591835, 51.218820402430197 ], [ 4.485370695916495, 51.220460702430664 ], [ 4.486904695916145, 51.220717802430762 ], [ 4.510567895910794, 51.225466302432011 ], [ 4.510779595910742, 51.225454402432028 ], [ 4.511123095910633, 51.225228202432149 ], [ 4.51141519591056, 51.225221202432159 ], [ 4.511845495910467, 51.225345502432198 ], [ 4.511920995910462, 51.22548200243218 ], [ 4.511865995910491, 51.225619402432123 ], [ 4.511684295910541, 51.225699902432062 ], [ 4.511469095910596, 51.225698202432056 ], [ 4.486886795916152, 51.220750602430755 ], [ 4.485355295916502, 51.22049330243069 ], [ 4.477149495918359, 51.218853702430195 ], [ 4.476515295918512, 51.218841602430153 ], [ 4.474928195918921, 51.21901650242993 ], [ 4.472204395919635, 51.219424302429481 ], [ 4.469255195920421, 51.219952602429011 ], [ 4.468715495920559, 51.220014902428957 ], [ 4.464081495921713, 51.220108402428401 ], [ 4.462709495922031, 51.219910502428284 ], [ 4.462232195922144, 51.219887902428255 ], [ 4.461567495922321, 51.219981902428174 ], [ 4.460835095922527, 51.220249702427999 ], [ 4.460548695922606, 51.220308202427937 ], [ 4.459185195922956, 51.220413402427788 ], [ 4.458557195923106, 51.220385002427697 ], [ 4.457214495923441, 51.220423302427548 ], [ 4.456506995923609, 51.220364202427504 ], [ 4.455806195923763, 51.220180202427457 ], [ 4.454852895923953, 51.219754302427475 ], [ 4.45404539592413, 51.219530802427457 ], [ 4.452204995924506, 51.218791302427448 ], [ 4.451545895924649, 51.218573202427464 ], [ 4.450765895924819, 51.218392302427411 ], [ 4.448482895925348, 51.21804950242727 ], [ 4.447538595925558, 51.217827702427222 ], [ 4.447141795925632, 51.21761000242725 ], [ 4.446816695925678, 51.217268702427312 ], [ 4.44665029592568, 51.21690390242739 ], [ 4.446331995925642, 51.215782402427671 ], [ 4.446114995925674, 51.215598802427685 ], [ 4.441636795926623, 51.214082102427653 ], [ 4.440822395926804, 51.213904302427615 ], [ 4.440489195926883, 51.213881102427564 ], [ 4.439193395927216, 51.214004802427397 ], [ 4.437506395927661, 51.214293502427118 ], [ 4.435035595928324, 51.214781202426721 ], [ 4.432868795928916, 51.215357602426323 ], [ 4.431048595929433, 51.216010702425933 ], [ 4.43036979592964, 51.216389502425741 ], [ 4.429444295929936, 51.217038802425414 ], [ 4.428759395930138, 51.217363502425279 ], [ 4.42443399593132, 51.218473402424479 ], [ 4.417619895933104, 51.219467502423441 ], [ 4.417137995933222, 51.219469402423393 ], [ 4.416784395933299, 51.219383902423353 ], [ 4.416408395933374, 51.219201702423383 ], [ 4.416160495933414, 51.218978302423444 ], [ 4.415646495933442, 51.218035502423625 ], [ 4.414612095933523, 51.216374902424008 ], [ 4.414274395933565, 51.215977102424077 ], [ 4.409106895934436, 51.212127702424588 ], [ 4.408697295934516, 51.211919102424602 ], [ 4.406570995934865, 51.210243402424865 ], [ 4.397212995936852, 51.207184102424712 ], [ 4.397086395936874, 51.207101902424732 ], [ 4.396965295936889, 51.20696810242471 ], [ 4.396816995936885, 51.206565102424833 ], [ 4.391563395937599, 51.201000702425851 ], [ 4.39054249593772, 51.199766102426089 ], [ 4.390285495937694, 51.198903902426302 ], [ 4.389422695937741, 51.197311202426675 ], [ 4.388739395937813, 51.196403002426855 ], [ 4.388080695937917, 51.195841602426945 ], [ 4.387223995938079, 51.195354602427017 ], [ 4.386083795938313, 51.194940802427006 ], [ 4.384670495938638, 51.194662602426916 ], [ 4.382835895939071, 51.194507702426755 ], [ 4.382576895939124, 51.194420602426753 ], [ 4.382345995939165, 51.194262302426765 ], [ 4.379932695939493, 51.191706302427235 ], [ 4.37761979593983, 51.189493002427604 ], [ 4.376839195939958, 51.188846502427715 ], [ 4.376556595939995, 51.188547102427762 ], [ 4.375840795940048, 51.187382802428026 ], [ 4.36687529594101, 51.175434002430464 ], [ 4.365545795941096, 51.173126702430977 ], [ 4.363783895941238, 51.170340602431594 ], [ 4.363032595941321, 51.169336702431792 ] ], [ [ 4.363032595941321, 51.169336702431792 ], [ 4.362864895941347, 51.169189402431826 ], [ 4.362304195941469, 51.169062102431788 ], [ 4.362127095941514, 51.169070002431759 ], [ 4.361984795941561, 51.169177502431715 ], [ 4.361997995941569, 51.169295702431697 ], [ 4.362176995941535, 51.169386002431679 ], [ 4.36282199594137, 51.169303302431786 ], [ 4.363032595941321, 51.169336702431792 ] ] ] } },
{ "type": "Feature", "properties": { "line": "11", "colour": "#FFFFFF", "source": "osm-overpass", "length_km": 8.26 }, "geometry": { "type": "LineString", "coordinates": [ [ 4.404464095936426, 51.220234202421736 ], [ 4.405290495936205, 51.22006850242191 ], [ 4.409400195935158, 51.219718002422461 ], [ 4.411146695934705, 51.219517202422701 ], [ 4.412335495934406, 51.219467902422849 ], [ 4.413314995934167, 51.21949440242296 ], [ 4.414560995933897, 51.219829602422998 ], [ 4.414899395933814, 51.21985430242303 ], [ 4.417215095933206, 51.219474102423383 ], [ 4.417679095933088, 51.21945100242344 ], [ 4.4214503959321, 51.218881202424022 ], [ 4.423393295931598, 51.218676202424305 ], [ 4.424026195931422, 51.218491002424422 ], [ 4.425750695930707, 51.215699002425417 ], [ 4.425653495930685, 51.21526590242555 ], [ 4.426205395930164, 51.211561802426687 ], [ 4.425991695930155, 51.210970502426818 ], [ 4.426189495930068, 51.210588902426913 ], [ 4.426094495930053, 51.210254702427022 ], [ 4.426637095929697, 51.208104102427704 ], [ 4.426863495929624, 51.207951602427762 ], [ 4.432167695928113, 51.206000002428915 ], [ 4.432367895928053, 51.205891002428977 ], [ 4.432921695927855, 51.205325402429182 ], [ 4.433962495927222, 51.20169210243035 ], [ 4.43404189592719, 51.201594002430369 ], [ 4.437767095926156, 51.200463302431096 ], [ 4.438341595926, 51.200325102431222 ], [ 4.438540395925949, 51.200322402431247 ], [ 4.438689295925919, 51.200376602431248 ], [ 4.438763895925914, 51.200529202431191 ], [ 4.438580295925976, 51.200672702431135 ], [ 4.438343195926034, 51.200668102431138 ], [ 4.438033795926092, 51.200486402431146 ], [ 4.437784495926153, 51.200486902431116 ], [ 4.435252695926859, 51.201271502430615 ], [ 4.434793395926993, 51.20146310243048 ], [ 4.434076995927191, 51.201654202430369 ], [ 4.433965695927232, 51.201813502430305 ], [ 4.432947695927854, 51.205359102429178 ], [ 4.432373895928056, 51.205927002428965 ], [ 4.42688159592962, 51.207977702427769 ], [ 4.426683295929687, 51.208117102427693 ], [ 4.426135195930047, 51.21025680242704 ], [ 4.426237395930054, 51.210580802426946 ], [ 4.426037095930144, 51.210980202426811 ], [ 4.426244595930148, 51.211519902426659 ], [ 4.425697295930675, 51.215255802425538 ], [ 4.425792895930695, 51.215685702425453 ], [ 4.424034295931428, 51.218539102424423 ], [ 4.4234019959316, 51.218705202424303 ], [ 4.421657995932047, 51.218882902424063 ], [ 4.41772079593308, 51.21947740242345 ], [ 4.417227795933204, 51.219501102423372 ], [ 4.415262295933721, 51.219801802423078 ], [ 4.414612195933894, 51.219948802422955 ], [ 4.411555795934692, 51.220362702422513 ], [ 4.409823395935149, 51.220657002422222 ], [ 4.407041795935868, 51.22097810242186 ], [ 4.405021995936397, 51.221275002421528 ], [ 4.403692295936752, 51.221531502421307 ], [ 4.40288839593696, 51.221630402421184 ], [ 4.40255829593704, 51.221609002421175 ], [ 4.402470295937046, 51.221474302421178 ], [ 4.402617195936943, 51.220843602421404 ], [ 4.402696395936913, 51.22073400242143 ], [ 4.404464095936426, 51.220234202421736 ] ] } },
{ "type": "Feature", "properties": { "line": "12", "colour": "#FF0000", "source": "osm-overpass", "length_km": 3.13 }, "geometry": { "type": "MultiLineString", "coordinates": [ [ [ 4.421755995932585, 51.224255002422538 ], [ 4.421646695932524, 51.223420902422745 ], [ 4.421742795932447, 51.22289190242293 ], [ 4.421593095932471, 51.222800102422902 ], [ 4.420441195932735, 51.222595802422845 ], [ 4.42028489593276, 51.222459202422861 ] ], [ [ 4.42028489593276, 51.222459202422861 ], [ 4.419950295932885, 51.222870702422732 ], [ 4.419772295932971, 51.223287702422574 ], [ 4.419648895933067, 51.223903402422387 ], [ 4.419679695933072, 51.224044002422325 ], [ 4.419864895933038, 51.22412970242236 ], [ 4.421554395932628, 51.224186402422518 ], [ 4.421755995932585, 51.224255002422538 ] ], [ [ 4.42028489593276, 51.222459202422861 ], [ 4.420980695932484, 51.221463202423251 ], [ 4.420850295932492, 51.221220202423311 ], [ 4.420708895932324, 51.219302302423813 ] ], [ [ 4.42157409593204, 51.218622602424134 ], [ 4.421702495932047, 51.218977802424021 ], [ 4.421871795932109, 51.219974802423778 ], [ 4.421121795932435, 51.221339502423298 ], [ 4.420725595932594, 51.22193710242307 ], [ 4.42028489593276, 51.222459202422861 ] ], [ [ 4.421755995932585, 51.224255002422538 ], [ 4.421961695932656, 51.225417402422217 ], [ 4.422076995932638, 51.2255382024222 ], [ 4.427711695931349, 51.226491002422541 ], [ 4.43076489593073, 51.227772402422509 ], [ 4.431037895930667, 51.227832602422509 ], [ 4.431539695930549, 51.22785350242259 ] ], [ [ 4.431156495930642, 51.227865202422514 ], [ 4.430747695930735, 51.227794802422501 ], [ 4.427714095931352, 51.226518002422537 ], [ 4.422070795932644, 51.225571502422191 ], [ 4.421923095932666, 51.22544630242222 ], [ 4.421755995932585, 51.224255002422538 ] ] ] } },
{ "type": "Feature", "properties": { "line": "24", "colour": "#FF80C0", "source": "osm-overpass", "length_km": 18.59 }, "geometry": { "type": "MultiLineString", "coordinates": [ [ [ 4.493545695914648, 51.222086102431099 ], [ 4.486886795916152, 51.220750602430755 ], [ 4.485355295916502, 51.22049330243069 ], [ 4.480904595917506, 51.219574202430415 ], [ 4.480831195917516, 51.219489502430449 ], [ 4.4808416959175, 51.219380302430466 ], [ 4.481928495917002, 51.217159502431251 ], [ 4.482120995916878, 51.216433702431445 ], [ 4.482122995916819, 51.215891602431597 ], [ 4.482014395916793, 51.215380602431743 ], [ 4.481858095916792, 51.214989502431855 ], [ 4.481539295916817, 51.214469302431958 ], [ 4.47979619591702, 51.212292402432389 ], [ 4.479398295917077, 51.211917502432442 ], [ 4.478744895917192, 51.211459302432495 ], [ 4.477673295917402, 51.210929602432536 ], [ 4.476887695917564, 51.210643702432549 ], [ 4.474130295918174, 51.209954702432434 ], [ 4.473562995918286, 51.209687402432444 ], [ 4.473112195918365, 51.209372502432494 ], [ 4.472735795918411, 51.208963002432547 ], [ 4.471177395918486, 51.205970502433267 ], [ 4.471050195918507, 51.205868702433257 ], [ 4.47082479591856, 51.205829302433258 ], [ 4.469571595918892, 51.206063702433056 ], [ 4.467988295919322, 51.206440702432758 ], [ 4.467329095919505, 51.206640102432615 ], [ 4.463528095920616, 51.208287502431752 ], [ 4.460306595921542, 51.209521702431047 ], [ 4.459803795921668, 51.209556102430952 ], [ 4.457781095922138, 51.209289402430784 ], [ 4.456972995922337, 51.209274802430734 ], [ 4.453570695923291, 51.210355102430043 ], [ 4.452804695923497, 51.210545102429904 ], [ 4.446300795925402, 51.213425502428365 ], [ 4.445807895925562, 51.213795202428194 ], [ 4.445458295925667, 51.213974602428088 ], [ 4.444908395925821, 51.21414190242799 ], [ 4.443730395926166, 51.214650402427722 ], [ 4.443449095926233, 51.214647802427685 ], [ 4.441403295926672, 51.214004302427647 ], [ 4.440625295926845, 51.213837702427611 ], [ 4.440178195926959, 51.213864302427517 ], [ 4.43766549592762, 51.214268902427172 ], [ 4.434697795928416, 51.214872202426648 ], [ 4.432453995929033, 51.215507402426205 ], [ 4.430688795929541, 51.216179402425837 ], [ 4.429893795929797, 51.216760502425565 ], [ 4.429078295930049, 51.217257402425354 ], [ 4.426177195930846, 51.218052002424798 ], [ 4.425070895931142, 51.218271702424595 ], [ 4.4234019959316, 51.218705202424303 ], [ 4.421363695932125, 51.218923402424011 ], [ 4.416418795933421, 51.219688302423251 ], [ 4.416248895933476, 51.219807202423183 ], [ 4.416208395933507, 51.219968502423157 ], [ 4.416550595933515, 51.220887202422908 ], [ 4.416542695933552, 51.22122160242283 ], [ 4.412939795935445, 51.230872002419659 ], [ 4.412619195935539, 51.230991002419572 ], [ 4.408541495936541, 51.230996102419134 ], [ 4.407727795936762, 51.231190502418968 ], [ 4.407441495936838, 51.231225802418948 ], [ 4.404102095937657, 51.231202502418583 ] ], [ [ 4.404102095937657, 51.231202502418583 ], [ 4.403911395937693, 51.231090302418593 ], [ 4.403838895937693, 51.230936502418601 ], [ 4.403965595937555, 51.229895802418952 ], [ 4.403877195937563, 51.229747002418989 ], [ 4.40364109593761, 51.229671502418981 ], [ 4.402362395937924, 51.229647702418831 ], [ 4.402150695937983, 51.229704102418786 ], [ 4.402086295938004, 51.229774502418778 ], [ 4.402092095938017, 51.229904402418747 ], [ 4.402745195937982, 51.231097202418475 ], [ 4.403008395937928, 51.231199902418453 ], [ 4.404102095937657, 51.231202502418583 ] ], [ [ 4.404102095937657, 51.231202502418583 ], [ 4.407440195936835, 51.23120050241895 ], [ 4.408383495936583, 51.230998202419094 ], [ 4.408726595936493, 51.230962702419156 ], [ 4.41248559593557, 51.230966102419565 ], [ 4.412803595935478, 51.230851702419656 ], [ 4.413329595935209, 51.229522302420087 ], [ 4.413536095935123, 51.22918410242022 ], [ 4.416489495933566, 51.221214902422801 ], [ 4.41649689593353, 51.220892902422932 ], [ 4.416152795933519, 51.219971702423138 ], [ 4.416238495933474, 51.219740302423219 ], [ 4.41654409593338, 51.219589302423287 ], [ 4.42164189593205, 51.218854802424069 ], [ 4.423393295931598, 51.218676202424305 ], [ 4.424675495931248, 51.218334402424546 ], [ 4.426212695930834, 51.218010602424805 ], [ 4.429053095930051, 51.217228402425356 ], [ 4.429854595929805, 51.216737602425589 ], [ 4.430652895929545, 51.216154502425837 ], [ 4.432428495929039, 51.215476402426226 ], [ 4.434680395928416, 51.214839202426667 ], [ 4.437654495927618, 51.214234102427142 ], [ 4.440165095926957, 51.213830102427551 ], [ 4.440628295926841, 51.21380260242762 ], [ 4.44143439592666, 51.213974202427664 ], [ 4.443433895926231, 51.214604602427698 ], [ 4.443709595926166, 51.214611602427716 ], [ 4.444848195925835, 51.21412040242798 ], [ 4.445335395925698, 51.213969702428095 ], [ 4.445776395925568, 51.213759702428199 ], [ 4.446279795925405, 51.213398102428364 ], [ 4.452266095923651, 51.210734002429788 ], [ 4.453399095923325, 51.210294102430034 ], [ 4.456964695922338, 51.209246302430721 ], [ 4.457787995922132, 51.209262802430821 ], [ 4.459837195921658, 51.209530702430982 ], [ 4.460321295921533, 51.209487102431041 ], [ 4.463357195920662, 51.208322102431701 ], [ 4.467307795919508, 51.206616002432625 ], [ 4.469303095918964, 51.206097202433028 ], [ 4.470852095918547, 51.205795602433255 ], [ 4.471091395918493, 51.205823802433287 ], [ 4.471202995918475, 51.205922302433272 ], [ 4.472712295918406, 51.20884200243259 ], [ 4.472858295918396, 51.209071002432552 ], [ 4.473152795918351, 51.209349202432492 ], [ 4.473618095918271, 51.209669102432457 ], [ 4.474041195918187, 51.209874302432446 ], [ 4.474588195918071, 51.210051802432467 ], [ 4.476166895917717, 51.210390702432548 ], [ 4.476920695917552, 51.210605302432533 ], [ 4.47779569591737, 51.210928102432547 ], [ 4.478810195917172, 51.21143920243253 ], [ 4.479449895917063, 51.211890202432478 ], [ 4.479815895917007, 51.212229202432411 ], [ 4.4815936959168, 51.21444240243197 ], [ 4.481922395916774, 51.214976102431869 ], [ 4.482103695916775, 51.215440402431746 ], [ 4.482196695916807, 51.215933602431605 ], [ 4.482186395916863, 51.216470302431439 ], [ 4.481962495917002, 51.217249002431195 ], [ 4.480926495917474, 51.219335802430507 ], [ 4.480925895917488, 51.219456402430453 ], [ 4.481005495917477, 51.219549802430429 ], [ 4.481178395917442, 51.21961800243043 ], [ 4.485370695916495, 51.220460702430664 ], [ 4.486904695916145, 51.220717802430762 ], [ 4.49443419591444, 51.222227802431171 ] ] ] } },
{ "type": "Feature", "properties": { "line": "A3", "colour": "#FFCC00", "source": "osm-overpass", "length_km": 32.12 }, "geometry": { "type": "MultiLineString", "coordinates": [ [ [ 4.492419695909354, 51.168787902446304 ], [ 4.493468595909057, 51.16844760244652 ], [ 4.493742295909, 51.168530702446532 ], [ 4.493841095908996, 51.168720702446493 ], [ 4.493776795909029, 51.16888490244645 ], [ 4.493514595909105, 51.168978502446386 ], [ 4.492419695909354, 51.168787902446304 ] ], [ [ 4.492419695909354, 51.168787902446304 ], [ 4.490912895909755, 51.169078602446056 ], [ 4.490259595909924, 51.169150402445958 ], [ 4.487100895910722, 51.169316602445583 ], [ 4.485978895910997, 51.169305502445418 ], [ 4.484781995911278, 51.16914010244534 ], [ 4.479590895912437, 51.167992002445104 ], [ 4.478778995912635, 51.167943202445031 ], [ 4.464088795916411, 51.169356802442991 ], [ 4.449038795920284, 51.170872902440884 ], [ 4.44820749592053, 51.171303502440651 ], [ 4.446758095920991, 51.172258302440227 ], [ 4.444095595921776, 51.173494002439583 ], [ 4.442433495922242, 51.174029602439234 ], [ 4.441200595922572, 51.174284902439034 ], [ 4.440068095922892, 51.174653002438788 ], [ 4.437424895923689, 51.176073802438097 ], [ 4.43589589592417, 51.177035702437649 ], [ 4.431908495925589, 51.181217302436018 ], [ 4.43097819592604, 51.183347902435301 ], [ 4.430459895926329, 51.184877402434779 ], [ 4.430134195926461, 51.185360802434623 ], [ 4.4274181959274, 51.18793800243359 ], [ 4.425017195928193, 51.189866102432745 ], [ 4.422292295929115, 51.192287802431743 ], [ 4.421883895929264, 51.192719102431582 ], [ 4.420408095929758, 51.193977002431062 ], [ 4.419297195930146, 51.195089402430611 ], [ 4.417818595930655, 51.196449202430088 ], [ 4.416037895931297, 51.198410302429288 ], [ 4.415350495931526, 51.198977202429084 ], [ 4.414705595931732, 51.199432302428868 ], [ 4.412656495932477, 51.201732702428004 ], [ 4.412648095932497, 51.201880602427956 ], [ 4.412798395932476, 51.202056302427906 ], [ 4.422562695930786, 51.208909402427011 ], [ 4.422721895930762, 51.209064202427001 ], [ 4.422784595930763, 51.20923250242695 ], [ 4.422767895930797, 51.209507902426878 ], [ 4.42206249593109, 51.210638202426452 ], [ 4.42102979593157, 51.212820202425732 ], [ 4.420491595931933, 51.215026002425049 ], [ 4.420522795932095, 51.216645402424575 ], [ 4.420667195932202, 51.218020802424185 ], [ 4.420911795932486, 51.221311202423301 ], [ 4.420996795932503, 51.221678902423172 ], [ 4.421216795932481, 51.221996702423112 ], [ 4.421911395932355, 51.222431802423081 ], [ 4.42225599593228, 51.222529602423073 ], [ 4.427320795931101, 51.223152302423465 ], [ 4.428010095930942, 51.223303302423496 ], [ 4.431919095930082, 51.22429350242362 ], [ 4.437456895928973, 51.226745302423559 ], [ 4.438967395928661, 51.22730960242356 ], [ 4.44056539592835, 51.228109402423499 ], [ 4.441286395928213, 51.22851250242347 ], [ 4.441689795928141, 51.228802802423424 ], [ 4.442120295928082, 51.229219002423349 ], [ 4.442273395928073, 51.2294854024233 ], [ 4.442487995928069, 51.229969102423176 ], [ 4.442702595928099, 51.230769902422963 ], [ 4.443177595928334, 51.234130802422051 ], [ 4.443170395928366, 51.234437102421978 ], [ 4.443027895928451, 51.234903002421845 ], [ 4.44260389592865, 51.235824302421513 ], [ 4.441596195929014, 51.236921202421094 ], [ 4.440735395929347, 51.238081002420635 ], [ 4.439275395929835, 51.239315202420144 ], [ 4.438184095930167, 51.239901902419867 ], [ 4.438090495930203, 51.240021902419812 ], [ 4.438112995930212, 51.24018610241977 ], [ 4.439802595929951, 51.241675402419517 ], [ 4.440709295929791, 51.242286202419457 ], [ 4.441582895929627, 51.242759902419436 ], [ 4.444553695929028, 51.24403290241937 ], [ 4.453238195927296, 51.247983202419206 ], [ 4.459329695926475, 51.254525002417999 ], [ 4.462534295926056, 51.258100502417335 ], [ 4.463763595925871, 51.259240702417138 ], [ 4.463820995925873, 51.259377802417092 ], [ 4.4637559959259, 51.259489502417068 ], [ 4.463578295925951, 51.259570802417031 ], [ 4.463391295925996, 51.259576102416972 ], [ 4.463146395926048, 51.259447102417028 ], [ 4.462448695926073, 51.258049302417362 ], [ 4.459281695926486, 51.254535002417967 ], [ 4.453225795927305, 51.248024902419182 ], [ 4.444473095929045, 51.244037702419355 ], [ 4.441553095929637, 51.242785002419431 ], [ 4.440674595929803, 51.242309202419428 ], [ 4.439764295929963, 51.241695602419512 ], [ 4.438064395930226, 51.240202302419753 ], [ 4.438018095930221, 51.240059402419803 ], [ 4.438108895930183, 51.239912402419826 ], [ 4.43924869592984, 51.23930000242013 ], [ 4.440730195929342, 51.238029002420653 ], [ 4.44155989592902, 51.236910802421072 ], [ 4.442551495928662, 51.2358135024215 ], [ 4.442800795928553, 51.23535560242167 ], [ 4.443132895928375, 51.234437002421963 ], [ 4.442681295928106, 51.230771702422985 ], [ 4.442466895928075, 51.229971902423188 ], [ 4.442252995928074, 51.229489702423287 ], [ 4.442099495928089, 51.229233402423347 ], [ 4.441672495928149, 51.228810902423419 ], [ 4.441271095928219, 51.228522002423475 ], [ 4.438949595928665, 51.227326502423544 ], [ 4.437441195928978, 51.226760302423536 ], [ 4.431905095930088, 51.22430920242364 ], [ 4.427313095931099, 51.22316960242344 ], [ 4.422245995932285, 51.222546502423064 ], [ 4.421895995932362, 51.222447102423054 ], [ 4.421192195932488, 51.222006302423104 ], [ 4.420968995932514, 51.221683802423179 ], [ 4.420883195932492, 51.221312902423286 ], [ 4.420645395932208, 51.218022602424206 ], [ 4.420472495932106, 51.216643202424564 ], [ 4.420441595931945, 51.215022802425032 ], [ 4.420980695931584, 51.212813302425715 ], [ 4.421977995931116, 51.210706002426441 ], [ 4.422722295930808, 51.209494602426879 ], [ 4.422748495930772, 51.209234402426937 ], [ 4.422688395930771, 51.20907310242697 ], [ 4.422534395930794, 51.208923302427017 ], [ 4.412736195932493, 51.202060102427893 ], [ 4.412597695932511, 51.201902802427931 ], [ 4.412590995932498, 51.201767802427959 ], [ 4.414696795931729, 51.199388602428883 ], [ 4.415389195931507, 51.198908702429087 ], [ 4.415956895931321, 51.1984320024293 ], [ 4.417855095930635, 51.196361502430086 ], [ 4.420372695929765, 51.193960302431066 ], [ 4.421898995929253, 51.192662802431585 ], [ 4.422263195929122, 51.19227020243175 ], [ 4.42465319592831, 51.190132602432641 ], [ 4.427385695927404, 51.187916802433577 ], [ 4.43009329592647, 51.185346002434613 ], [ 4.430411195926341, 51.184874502434788 ], [ 4.43093579592605, 51.183339402435294 ], [ 4.431855795925602, 51.181203202436002 ], [ 4.435864495924175, 51.17701180243764 ], [ 4.437170995923765, 51.176171702438054 ], [ 4.440037495922896, 51.174623602438778 ], [ 4.441178895922576, 51.174254302439032 ], [ 4.442316995922271, 51.174026002439213 ], [ 4.444084795921776, 51.173456502439592 ], [ 4.446723395920998, 51.172234402440239 ], [ 4.448165195920541, 51.171284902440675 ], [ 4.449022295920284, 51.170839502440906 ], [ 4.464083895916406, 51.169321302443016 ], [ 4.478814595912624, 51.16790750244504 ], [ 4.479604495912433, 51.16796420244512 ], [ 4.484814795911265, 51.169111802445364 ], [ 4.485991195910993, 51.169273102445452 ], [ 4.48710089591072, 51.169284002445572 ], [ 4.490248495909924, 51.169117602445951 ], [ 4.492419695909354, 51.168787902446304 ] ] ] } },
{ "type": "Feature", "properties": { "line": "A9", "colour": "#A85E24", "source": "osm-overpass", "length_km": 23.09 }, "geometry": { "type": "MultiLineString", "coordinates": [ [ [ 4.423840786389554, 51.208266330222024 ], [ 4.422767895930797, 51.209507902426878 ], [ 4.422028895931104, 51.210702302426455 ], [ 4.42102979593157, 51.212820202425732 ], [ 4.420491595931933, 51.215026002425049 ], [ 4.420522795932095, 51.216645402424575 ], [ 4.420667195932202, 51.218020802424185 ], [ 4.420911795932486, 51.221311202423301 ], [ 4.420996795932503, 51.221678902423172 ], [ 4.421216795932481, 51.221996702423112 ], [ 4.421538595932428, 51.222235402423081 ], [ 4.421911395932355, 51.222431802423081 ], [ 4.422674995932184, 51.222607002423103 ], [ 4.427320795931101, 51.223152302423465 ], [ 4.428010095930942, 51.223303302423496 ], [ 4.431919095930082, 51.22429350242362 ], [ 4.437456895928973, 51.226745302423559 ], [ 4.438967395928661, 51.22730960242356 ], [ 4.44056539592835, 51.228109402423499 ], [ 4.441466595928163, 51.228453402423497 ], [ 4.44236779592797, 51.228716802423534 ], [ 4.443166095927785, 51.228851102423576 ], [ 4.443784095927635, 51.228878002423642 ], [ 4.444350495927488, 51.228818902423704 ], [ 4.445019995927305, 51.22861460242386 ], [ 4.445655195927115, 51.228319002423994 ], [ 4.44820689592631, 51.226630002424777 ], [ 4.448399195926252, 51.226555302424792 ], [ 4.448681595926187, 51.226572802424826 ], [ 4.449337695926063, 51.2269311024248 ], [ 4.449644395925994, 51.226986602424816 ], [ 4.454062395924889, 51.226850302425362 ] ], [ [ 4.423840786389554, 51.208266330222024 ], [ 4.422722295930808, 51.209494602426879 ], [ 4.421977995931116, 51.210706002426441 ], [ 4.420980695931584, 51.212813302425715 ], [ 4.420441595931945, 51.215022802425032 ], [ 4.420472495932106, 51.216643202424564 ], [ 4.420645395932208, 51.218022602424206 ], [ 4.420883195932492, 51.221312902423286 ], [ 4.420968995932514, 51.221683802423179 ], [ 4.421192195932488, 51.222006302423104 ], [ 4.421518295932435, 51.222248202423096 ], [ 4.421895995932362, 51.222447102423054 ], [ 4.422668495932189, 51.222624502423102 ], [ 4.427313095931099, 51.22316960242344 ], [ 4.431905095930088, 51.22430920242364 ], [ 4.437441195928978, 51.226760302423536 ], [ 4.438949595928665, 51.227326502423544 ], [ 4.440544495928356, 51.228127702423478 ], [ 4.441449595928168, 51.228473202423487 ], [ 4.442355495927973, 51.228738002423533 ], [ 4.443160095927789, 51.228873402423574 ], [ 4.443785795927638, 51.228900602423629 ], [ 4.444361495927489, 51.228840502423694 ], [ 4.4450386959273, 51.228633902423844 ], [ 4.445678395927112, 51.228336202424003 ], [ 4.446151095926966, 51.228060302424133 ], [ 4.448358995926269, 51.226608602424811 ], [ 4.448691295926191, 51.226620802424826 ], [ 4.449293895926075, 51.226950902424797 ], [ 4.44954309592602, 51.227007502424804 ], [ 4.454062395924889, 51.226850302425362 ] ], [ [ 4.425892495929652, 51.205917202428232 ], [ 4.423840786389554, 51.208266330222024 ] ], [ [ 4.423840786389554, 51.208266330222024 ], [ 4.425779695929705, 51.206156102428174 ], [ 4.425892495929652, 51.205917202428232 ] ], [ [ 4.425892495929652, 51.205917202428232 ], [ 4.425961895929623, 51.205795602428282 ], [ 4.426375995929483, 51.205430902428439 ], [ 4.428198195928827, 51.203466502429222 ], [ 4.428451595928715, 51.202990902429384 ], [ 4.428841495928572, 51.202537902429555 ], [ 4.429037895928509, 51.202405702429601 ], [ 4.429319695928433, 51.20233190242967 ], [ 4.432637895927567, 51.201885402430165 ], [ 4.434656395927021, 51.201424102430508 ], [ 4.438230295926028, 51.20034290243121 ], [ 4.43849339592596, 51.200317002431248 ], [ 4.438715195925914, 51.200397902431256 ], [ 4.438756595925917, 51.200548502431204 ], [ 4.438580295925976, 51.200672702431135 ], [ 4.438343195926034, 51.200668102431138 ], [ 4.438067095926083, 51.200495102431141 ], [ 4.437809595926148, 51.200481902431129 ], [ 4.434756795926999, 51.201429502430528 ], [ 4.432737295927543, 51.20188930243016 ], [ 4.429323495928434, 51.202358602429648 ], [ 4.429056695928507, 51.202433202429582 ], [ 4.428855595928573, 51.202571602429536 ], [ 4.428542295928685, 51.202935702429379 ], [ 4.428234195928821, 51.203476002429205 ], [ 4.426401195929478, 51.205452702428445 ], [ 4.425892495929652, 51.205917202428232 ] ], [ [ 4.455015695924739, 51.227653002425228 ], [ 4.454583595924824, 51.227444802425232 ], [ 4.454490995924789, 51.226915602425393 ], [ 4.45434219592482, 51.226850502425378 ], [ 4.454062395924889, 51.226850302425362 ] ], [ [ 4.455015695924739, 51.227653002425228 ], [ 4.456823295924364, 51.228335402425238 ], [ 4.457109195924291, 51.228332802425257 ], [ 4.45722669592425, 51.228223002425317 ], [ 4.4585163959237, 51.226012002426103 ], [ 4.45865089592366, 51.22591560242612 ], [ 4.4588863959236, 51.225898102426171 ], [ 4.459815695923406, 51.226241802426145 ], [ 4.460726595923205, 51.226481702426184 ], [ 4.46230249592285, 51.226796002426298 ], [ 4.466054695921985, 51.227349602426528 ], [ 4.469163295921297, 51.228120302426682 ], [ 4.471612395920809, 51.229255202426621 ], [ 4.478398695919446, 51.232226402426519 ], [ 4.478563995919408, 51.232273302426506 ], [ 4.478776695919355, 51.232265702426538 ], [ 4.478975995919296, 51.232160502426602 ], [ 4.479032995919265, 51.232010102426635 ], [ 4.479137895918297, 51.222966802429248 ], [ 4.479265295918222, 51.222577002429368 ], [ 4.480664695917582, 51.219734702430351 ], [ 4.480771295917543, 51.219622102430392 ], [ 4.480947395917497, 51.219581402430428 ], [ 4.485370695916495, 51.220460702430664 ], [ 4.486904695916145, 51.220717802430762 ], [ 4.510567895910794, 51.225466302432011 ], [ 4.510779595910742, 51.225454402432028 ], [ 4.511091895910638, 51.225206402432157 ], [ 4.511291695910583, 51.225156502432199 ], [ 4.511819895910463, 51.225262402432215 ], [ 4.511956795910447, 51.225411202432198 ], [ 4.511818495910509, 51.225655902432109 ], [ 4.511624395910559, 51.225710902432056 ], [ 4.511469095910596, 51.225698202432056 ], [ 4.486886795916152, 51.220750602430755 ], [ 4.485355295916502, 51.22049330243069 ], [ 4.481047895917476, 51.2196349024304 ], [ 4.480834095917532, 51.219676302430365 ], [ 4.48069419591758, 51.219799402430354 ], [ 4.479306495918215, 51.222582602429405 ], [ 4.479178995918286, 51.222971202429257 ], [ 4.479081495919251, 51.231995902426654 ], [ 4.479029195919284, 51.232168102426584 ], [ 4.478828595919348, 51.232287702426532 ], [ 4.478598995919405, 51.2323111024265 ], [ 4.478371395919455, 51.232253002426503 ], [ 4.468945995921346, 51.228093302426643 ], [ 4.466852095921807, 51.227555902426559 ], [ 4.46576429592205, 51.227324502426498 ], [ 4.461605295923014, 51.226702002426237 ], [ 4.460060195923358, 51.22634950242616 ], [ 4.458911195923597, 51.225937902426118 ], [ 4.458683995923654, 51.225950202426098 ], [ 4.458521795923708, 51.226072602426072 ], [ 4.457227395924257, 51.22829040242528 ], [ 4.457140195924288, 51.228362402425248 ], [ 4.456986595924327, 51.228396402425233 ], [ 4.456819995924365, 51.228366202425235 ], [ 4.455015695924739, 51.227653002425228 ] ] ] } }
]
}
