{
"type": "FeatureCollection",
"name": "IJ_mask_water",
"crs": { "type": "name", "properties": { "name": "urn:ogc:def:crs:EPSG::3857" } },
"features": [
{ "type": "Feature", "properties": { }, "geometry": { "type": "Polygon", "coordinates": [ [ [ 546465.756228000856936, 6867809.616104397922754 ], [ 546895.670380693511106, 6867578.912598264403641 ], [ 547174.378858805750497, 6867746.963290754705667 ], [ 547233.236549836001359, 6867662.272133528254926 ], [ 547257.738394065643661, 6867680.382192306220531 ], [ 547225.646304612630047, 6867727.255285616032779 ], [ 547198.880703035625629, 6867762.942754384130239 ], [ 547299.28499949851539, 6867832.986069954931736 ], [ 547330.444953573052771, 6867785.18084126804024 ], [ 547365.86609794863034, 6867736.842963790521026 ], [ 547386.106751877465285, 6867754.953022569417953 ], [ 547355.079959999653511, 6867802.758251259103417 ], [ 547322.987870546756312, 6867848.699209189042449 ], [ 547370.393612643238157, 6867882.256082806736231 ], [ 547422.393450532690622, 6867939.316084178164601 ], [ 547414.936367506277747, 6867964.883225983008742 ], [ 547421.527896253042854, 6867972.540052304975688 ], [ 547441.102739197202027, 6867950.701452014036477 ], [ 547462.408690701238811, 6867930.194473691284657 ], [ 547483.98096659919247, 6867910.752792943269014 ], [ 547507.018026662990451, 6867892.9090585578233 ], [ 547519.535273171612062, 6867906.225278248079121 ], [ 547499.827268030261621, 6867928.862851723097265 ], [ 547479.986100692069158, 6867951.10093860514462 ], [ 547436.708386699669063, 6867990.383786688558757 ], [ 547456.150067447102629, 6868009.559143043123186 ], [ 547486.644210537197068, 6867975.735945031046867 ], [ 547513.276649917243049, 6867949.90247883182019 ], [ 547532.585168467834592, 6867934.721988384611905 ], [ 547545.368739370256662, 6867947.505559287033975 ], [ 547527.658167182467878, 6867969.344159579835832 ], [ 547514.874596280045807, 6867982.926703663542867 ], [ 547472.662179862731136, 6868027.669201821088791 ], [ 547526.792612902470864, 6868082.065959255211055 ], [ 547544.636347287101671, 6868100.176018034107983 ], [ 547548.897537587909028, 6868106.368060190230608 ], [ 547551.827105919714086, 6868112.16061575524509 ], [ 547553.558214479475282, 6868117.686846925877035 ], [ 547554.490349857718684, 6868123.612564688548446 ], [ 547554.157444365439005, 6868129.338539154268801 ], [ 547552.825822396553122, 6868134.332121537998319 ], [ 547551.094713836791925, 6868138.193825248628855 ], [ 547548.764375391067006, 6868141.656042368151248 ], [ 547542.306008841376752, 6868147.648341228254139 ], [ 547534.249695928883739, 6868152.375599218532443 ], [ 547131.567212502472103, 6868253.578868863172829 ], [ 546935.552458665217273, 6868058.629412600770593 ], [ 546890.809960506740026, 6868240.795297960750759 ], [ 546843.670542804058641, 6868451.724217852577567 ], [ 546763.240575876203366, 6868439.20697134360671 ], [ 546768.300739358412102, 6868406.98171969410032 ], [ 546797.063773888978176, 6868182.203931323252618 ], [ 546771.496632084134035, 6868153.440896793268621 ], [ 546771.496632084134035, 6868122.547267111949623 ], [ 546742.733597553684376, 6867892.442990868352354 ], [ 546586.134853998897597, 6867981.927987185306847 ], [ 546465.756228000856936, 6867809.616104397922754 ] ] ] } }
]
}
