{
"type": "FeatureCollection",
"name": "old_land_top",
"crs": { "type": "name", "properties": { "name": "urn:ogc:def:crs:EPSG::3857" } },
"features": [
{ "type": "Feature", "properties": { }, "geometry": { "type": "Polygon", "coordinates": [ [ [ 547534.249695928883739, 6868152.375599218532443 ], [ 547135.89498390245717, 6868254.044936545193195 ], [ 546971.306508533773012, 6868091.320731933228672 ], [ 546906.85600523406174, 6868153.640640083700418 ], [ 546903.793274705298245, 6868157.901830385439098 ], [ 546903.127463720855303, 6868163.228318260982633 ], [ 546903.260625917697325, 6868166.690535380505025 ], [ 546905.258058871258982, 6868170.152752500027418 ], [ 547065.585343939019367, 6868351.785989070311189 ], [ 547522.598003700841218, 6868236.201202161610126 ], [ 547585.450560637749732, 6868219.689089745283127 ], [ 547579.058775186538696, 6868194.654596728272736 ], [ 547518.070489006466232, 6868208.503465202637017 ], [ 547576.129206854035147, 6868120.483253062702715 ], [ 547597.701482751755975, 6868085.461595275439322 ], [ 547514.874596280045807, 6867982.926703663542867 ], [ 547472.662179862731136, 6868027.669201821088791 ], [ 547548.897537587909028, 6868106.368060190230608 ], [ 547551.827105919714086, 6868112.16061575524509 ], [ 547553.558214479475282, 6868117.686846925877035 ], [ 547554.490349857718684, 6868123.612564688548446 ], [ 547554.157444365439005, 6868129.338539154268801 ], [ 547552.825822396553122, 6868134.332121537998319 ], [ 547551.094713836791925, 6868138.193825248628855 ], [ 547548.764375391067006, 6868141.656042368151248 ], [ 547542.306008841376752, 6868147.648341228254139 ], [ 547534.249695928883739, 6868152.375599218532443 ] ] ] } },
{ "type": "Feature", "properties": { }, "geometry": { "type": "Polygon", "coordinates": [ [ [ 546865.975210785516538, 6868124.211794570088387 ], [ 546937.8827971117571, 6868058.695993694476783 ], [ 546799.394112335401587, 6867921.805255281738937 ], [ 546795.665570822311565, 6867914.880821042694151 ], [ 546794.600273247109726, 6867907.423738015815616 ], [ 546796.730868397513404, 6867898.368708626367152 ], [ 546801.524707485921681, 6867893.308545144274831 ], [ 546922.435982271330431, 6867795.03484383225441 ], [ 546926.963496965938248, 6867792.371599894948304 ], [ 546927.229821359738708, 6867786.778787625022233 ], [ 546921.903333483729511, 6867777.723758235573769 ], [ 546884.08526956406422, 6867731.116989320144057 ], [ 546982.625295270234346, 6867651.752319966442883 ], [ 546986.353836783440784, 6867648.023778453469276 ], [ 546980.761024513631128, 6867640.833019820973277 ], [ 546945.606204531970434, 6867607.8087949892506 ], [ 546942.676636200165376, 6867607.542470595799387 ], [ 546626.815905152470805, 6867850.430317743681371 ], [ 546865.975210785516538, 6868124.211794570088387 ] ] ] } }
]
}
