{
"type": "FeatureCollection",
"name": "demolished",
"crs": { "type": "name", "properties": { "name": "urn:ogc:def:crs:EPSG::3857" } },
"features": [
{ "type": "Feature", "properties": { }, "geometry": { "type": "Polygon", "coordinates": [ [ [ 545002.902913948753849, 6866856.024967063218355 ], [ 545588.816580310114659, 6867961.803850123658776 ], [ 546000.021444338257425, 6867571.904937598854303 ], [ 546317.480121748638339, 6867767.91969143692404 ], [ 546877.826646305038594, 6867482.41994128189981 ], [ 548221.166888635605574, 6866800.629493149928749 ], [ 547299.519693099544384, 6866095.070723115466535 ], [ 547160.217232005670667, 6865752.960267194546759 ], [ 547410.142235732753761, 6865160.924807545728981 ], [ 548975.246357432566583, 6865701.746127086691558 ], [ 549677.837735143955797, 6865090.087532511912286 ], [ 548954.091620375053026, 6864825.567788721993566 ], [ 547907.969401526614092, 6864065.477968813851476 ], [ 548200.926234706770629, 6863809.273901981301606 ], [ 547636.318519849213772, 6863372.501896150410175 ], [ 547253.876690352219157, 6863545.612752116285264 ], [ 546859.716587527189404, 6863366.110110696405172 ], [ 546156.620187893509865, 6864650.326337597332895 ], [ 545505.094362725503743, 6866786.124824518337846 ], [ 545002.902913948753849, 6866856.024967063218355 ] ] ] } }
]
}
