{
  "type": "FeatureCollection",
  "name": "transvaalbuurt",
  "crs": {
    "type": "name",
    "properties": {
      "name": "urn:ogc:def:crs:EPSG::3857"
    }
  },
  "features": [
    {
      "type": "Feature",
      "properties": {
        "identificatie": "03630970000074",
        "volgnummer": 1,
        "registratiedatum": "2024-01-25T20:36:51",
        "naam": "Transvaalbuurt",
        "code": "MD",
        "beginGeldigheid": "2022-03-24T00:00:00",
        "eindGeldigheid": null,
        "documentdatum": "2022-02-16",
        "documentnummer": "VN2022-001699",
        "cbsCode": "WK0363MD",
        "ligtInStadsdeelId": "03630011872039",
        "ligtInGgwgebiedId": "03630950000035",
        "source": "Gemeente Amsterdam Gebieden API",
        "source_url": "https://api.data.amsterdam.nl/v1/gebieden/wijken?naam=Transvaalbuurt&_format=geojson",
        "source_level": "wijk"
      },
      "geometry": {
        "type": "Polygon",
        "coordinates": [
          [
            [
              548462.7790696013,
              6864520.059770752
            ],
            [
              547871.6023459947,
              6864083.561964777
            ],
            [
              547301.7169512776,
              6863663.56349999
            ],
            [
              547103.5909732481,
              6863857.780845874
            ],
            [
              547093.5458562493,
              6863900.505772578
            ],
            [
              547095.1179905967,
              6863900.955027977
            ],
            [
              547096.2265773873,
              6863905.602683548
            ],
            [
              547089.8880249922,
              6863943.901655385
            ],
            [
              547086.0493904605,
              6863992.480862444
            ],
            [
              547086.2542707188,
              6864051.162211804
            ],
            [
              547089.4932455473,
              6864091.519585571
            ],
            [
              547095.9678534345,
              6864135.578962411
            ],
            [
              547104.4781287187,
              6864175.158733058
            ],
            [
              547128.434487211,
              6864255.659833894
            ],
            [
              547147.3953758855,
              6864299.333122104
            ],
            [
              547157.519614131,
              6864319.670293265
            ],
            [
              547186.185572319,
              6864370.295302485
            ],
            [
              547203.1592610212,
              6864394.212264611
            ],
            [
              547234.8164871669,
              6864433.672178798
            ],
            [
              547218.6669210177,
              6864446.40461724
            ],
            [
              547256.1409435378,
              6864485.941942393
            ],
            [
              547296.7375698941,
              6864522.252883348
            ],
            [
              547340.1773573654,
              6864555.088176182
            ],
            [
              547362.8727949922,
              6864570.131193669
            ],
            [
              547410.022726097,
              6864597.343810978
            ],
            [
              547600.6260253023,
              6864689.650299533
            ],
            [
              548436.2474078272,
              6865092.513099556
            ],
            [
              548464.7956940524,
              6865020.231700273
            ],
            [
              548512.3795360131,
              6864879.1698007
            ],
            [
              548562.4298193865,
              6864746.011811789
            ],
            [
              548604.5635081938,
              6864637.133291524
            ],
            [
              548607.7281294169,
              6864631.518213325
            ],
            [
              548462.7790696013,
              6864520.059770752
            ]
          ]
        ]
      }
    }
  ]
}
